{
"type": "FeatureCollection",
"name": "Buffer_Statistiques",
"crs": { "type": "name", "properties": { "name": "urn:ogc:def:crs:EPSG::2154" } },
"features": [
{ "type": "Feature", "properties": { "id_x": 2, "Nom": "Nez de jobourg", "min_x": -3.9800000190734863, "max_x": 146.02999877929688, "mean_x": 30.375653530707734, "count_x": 502463, "sum_x": 15262642.0, "std_x": 47.649428445208471, "median_x": 0.0, "majority_x": -0.0, "minority_x": -3.9800000190734863, "unique_x": 10278, "range_x": 150.00999879837036, "id_y": 2, "min_y": -3.9800000190734863, "max_y": 146.02999877929688, "mean_y": 30.375653530707734, "count_y": 502463, "sum_y": 15262642.0, "std_y": 47.649428445208471, "median_y": 0.0, "majority_y": -0.0, "minority_y": -3.9800000190734863, "unique_y": 10278, "range_y": 150.00999879837036, "hs_min_x": 4.9293842315673828, "hs_max_x": 5.8613924980163574, "hs_mean_x": 5.3953886032104492, "hs_std_x": 0.46600413322454831, "id": 2, "min": -3.9800000190734863, "max": 146.02999877929688, "mean": 30.375653530707734, "count": 502463, "sum": 15262642.0, "std": 47.649428445208471, "median": 0.0, "majority": -0.0, "minority": -3.9800000190734863, "unique": 10278, "range": 150.00999879837036, "hs_min_y": 4.9293842315673828, "hs_max_y": 5.8613924980163574, "hs_mean_y": 5.3953886032104492, "hs_std_y": 0.46600413322454831, "dir_min": 322.65042114257812, "dir_max": 338.954345703125, "dir_mean": 330.8023681640625, "dir_std": 8.1519622802877176 }, "geometry": { "type": "Polygon", "coordinates": [ [ [ 345451.890055926924106, 6963729.145977078936994 ], [ 345449.480968337273225, 6963631.010628423653543 ], [ 345442.259509271301795, 6963533.111696420237422 ], [ 345430.243075856473297, 6963435.68502816837281 ], [ 345413.46061673341319, 6963338.965333046391606 ], [ 345391.952562316029798, 6963243.185617272742093 ], [ 345365.77072739135474, 6963148.576622569933534 ], [ 345334.978186292981263, 6963055.366270294412971 ], [ 345299.649120949499775, 6962963.779112348333001 ], [ 345259.868642173823901, 6962874.035790218040347 ], [ 345215.732584623619914, 6962786.352503427304327 ], [ 345167.347275927488226, 6962700.940488692373037 ], [ 345114.829280532023404, 6962618.005511039867997 ], [ 345058.305118888209108, 6962537.74736809451133 ], [ 344997.910962652415037, 6962460.359408752061427 ], [ 344933.792306636867579, 6962386.028067384846509 ], [ 344866.103618299996015, 6962314.932414705865085 ], [ 344795.007965620956384, 6962247.243726368993521 ], [ 344720.676624254207127, 6962183.125070353038609 ], [ 344643.288664911815431, 6962122.730914117768407 ], [ 344563.030521966109518, 6962066.20675247348845 ], [ 344480.095544313371647, 6962013.688757078722119 ], [ 344394.683529578906018, 6961965.303448381833732 ], [ 344307.000242787471507, 6961921.167390831746161 ], [ 344217.256920657120645, 6961881.38691205624491 ], [ 344125.669762711389922, 6961846.057846712879837 ], [ 344032.459410435869358, 6961815.265305614098907 ], [ 343937.850415733468253, 6961789.083470690064132 ], [ 343842.070699959178455, 6961767.575416272506118 ], [ 343745.351004837662913, 6961750.792957149446011 ], [ 343647.924336586031131, 6961738.77652373444289 ], [ 343550.025404581741896, 6961731.555064668878913 ], [ 343451.890055926924106, 6961729.145977078936994 ], [ 343353.754707272106316, 6961731.555064668878913 ], [ 343255.85577526781708, 6961738.77652373444289 ], [ 343158.429107016185299, 6961750.792957149446011 ], [ 343061.709411894669756, 6961767.575416272506118 ], [ 342965.929696120379958, 6961789.083470690064132 ], [ 342871.320701417978853, 6961815.265305614098907 ], [ 342778.11034914245829, 6961846.057846712879837 ], [ 342686.523191196727566, 6961881.38691205624491 ], [ 342596.779869066376705, 6961921.167390831746161 ], [ 342509.096582274942193, 6961965.303448381833732 ], [ 342423.684567540476564, 6962013.688757078722119 ], [ 342340.749589887738694, 6962066.20675247348845 ], [ 342260.49144694203278, 6962122.730914117768407 ], [ 342183.103487599641085, 6962183.125070353038609 ], [ 342108.772146232891828, 6962247.243726368993521 ], [ 342037.676493553852197, 6962314.932414705865085 ], [ 341969.987805216980632, 6962386.028067384846509 ], [ 341905.869149201433174, 6962460.359408752061427 ], [ 341845.474992965639103, 6962537.74736809451133 ], [ 341788.950831321824808, 6962618.005511039867997 ], [ 341736.432835926359985, 6962700.940488692373037 ], [ 341688.047527230228297, 6962786.352503427304327 ], [ 341643.911469680024311, 6962874.035790218040347 ], [ 341604.130990904348437, 6962963.779112348333001 ], [ 341568.801925560866948, 6963055.366270294412971 ], [ 341538.009384462493472, 6963148.576622569933534 ], [ 341511.827549537818413, 6963243.185617272742093 ], [ 341490.319495120435022, 6963338.965333046391606 ], [ 341473.537035997374915, 6963435.68502816837281 ], [ 341461.520602582546417, 6963533.111696420237422 ], [ 341454.299143516574986, 6963631.010628423653543 ], [ 341451.890055926924106, 6963729.145977078936994 ], [ 341454.299143516574986, 6963827.281325734220445 ], [ 341461.520602582546417, 6963925.180257737636566 ], [ 341473.537035997374915, 6964022.606925989501178 ], [ 341490.319495120435022, 6964119.326621111482382 ], [ 341511.827549537818413, 6964215.106336885131896 ], [ 341538.009384462493472, 6964309.715331587940454 ], [ 341568.801925560866948, 6964402.925683863461018 ], [ 341604.130990904348437, 6964494.512841809540987 ], [ 341643.911469680024311, 6964584.256163939833641 ], [ 341688.047527230228297, 6964671.939450730569661 ], [ 341736.432835926359985, 6964757.351465465500951 ], [ 341788.950831321824808, 6964840.286443118005991 ], [ 341845.474992965639103, 6964920.544586063362658 ], [ 341905.869149201433174, 6964997.932545405812562 ], [ 341969.987805216980632, 6965072.26388677302748 ], [ 342037.676493553852197, 6965143.359539452008903 ], [ 342108.772146232891828, 6965211.048227788880467 ], [ 342183.103487599641085, 6965275.166883804835379 ], [ 342260.49144694203278, 6965335.561040040105581 ], [ 342340.749589887738694, 6965392.085201684385538 ], [ 342423.684567540476564, 6965444.603197079151869 ], [ 342509.096582274942193, 6965492.988505776040256 ], [ 342596.779869066376705, 6965537.124563326127827 ], [ 342686.523191196727566, 6965576.905042101629078 ], [ 342778.11034914245829, 6965612.234107444994152 ], [ 342871.320701417978853, 6965643.026648543775082 ], [ 342965.929696120379958, 6965669.208483467809856 ], [ 343061.709411894669756, 6965690.71653788536787 ], [ 343158.429107016185299, 6965707.498997008427978 ], [ 343255.85577526781708, 6965719.515430423431098 ], [ 343353.754707272106316, 6965726.736889488995075 ], [ 343451.890055926924106, 6965729.145977078936994 ], [ 343550.025404581741896, 6965726.736889488995075 ], [ 343647.924336586031131, 6965719.515430423431098 ], [ 343745.351004837662913, 6965707.498997008427978 ], [ 343842.070699959178455, 6965690.71653788536787 ], [ 343937.850415733468253, 6965669.208483467809856 ], [ 344032.459410435869358, 6965643.026648543775082 ], [ 344125.669762711389922, 6965612.234107444994152 ], [ 344217.256920657120645, 6965576.905042101629078 ], [ 344307.000242787471507, 6965537.124563326127827 ], [ 344394.683529578906018, 6965492.988505776040256 ], [ 344480.095544313371647, 6965444.603197079151869 ], [ 344563.030521966109518, 6965392.085201684385538 ], [ 344643.288664911815431, 6965335.561040040105581 ], [ 344720.676624254207127, 6965275.166883804835379 ], [ 344795.007965620956384, 6965211.048227788880467 ], [ 344866.103618299996015, 6965143.359539452008903 ], [ 344933.792306636867579, 6965072.26388677302748 ], [ 344997.910962652415037, 6964997.932545405812562 ], [ 345058.305118888209108, 6964920.544586063362658 ], [ 345114.829280532023404, 6964840.286443118005991 ], [ 345167.347275927488226, 6964757.351465465500951 ], [ 345215.732584623619914, 6964671.939450730569661 ], [ 345259.868642173823901, 6964584.256163939833641 ], [ 345299.649120949499775, 6964494.512841809540987 ], [ 345334.978186292981263, 6964402.925683863461018 ], [ 345365.77072739135474, 6964309.715331587940454 ], [ 345391.952562316029798, 6964215.106336885131896 ], [ 345413.46061673341319, 6964119.326621111482382 ], [ 345430.243075856473297, 6964022.606925989501178 ], [ 345442.259509271301795, 6963925.180257737636566 ], [ 345449.480968337273225, 6963827.281325734220445 ], [ 345451.890055926924106, 6963729.145977078936994 ] ] ] } },
{ "type": "Feature", "properties": { "id_x": 5, "Nom": "Port racine", "min_x": -2.0999999046325684, "max_x": 114.48000335693359, "mean_x": 32.460217536247747, "count_x": 502445, "sum_x": 16309474.0, "std_x": 36.633305738504134, "median_x": 14.0, "majority_x": -0.0, "minority_x": -2.0999999046325684, "unique_x": 8073, "range_x": 116.58000326156616, "id_y": 5, "min_y": -2.0999999046325684, "max_y": 114.48000335693359, "mean_y": 32.460217536247747, "count_y": 502445, "sum_y": 16309474.0, "std_y": 36.633305738504134, "median_y": 14.0, "majority_y": -0.0, "minority_y": -2.0999999046325684, "unique_y": 8073, "range_y": 116.58000326156616, "hs_min_x": 5.6771144866943359, "hs_max_x": 5.6771144866943359, "hs_mean_x": 5.6771144866943359, "hs_std_x": 0.0, "id": 5, "min": -2.0999999046325684, "max": 114.48000335693359, "mean": 32.460217536247747, "count": 502445, "sum": 16309474.0, "std": 36.633305738504134, "median": 14.0, "majority": -0.0, "minority": -2.0999999046325684, "unique": 8073, "range": 116.58000326156616, "hs_min_y": 5.6771144866943359, "hs_max_y": 5.6771144866943359, "hs_mean_y": 5.6771144866943359, "hs_std_y": 0.0, "dir_min": 21.805995941162109, "dir_max": 21.805995941162109, "dir_mean": 21.805995941162109, "dir_std": 0.0 }, "geometry": { "type": "Polygon", "coordinates": [ [ [ 348827.781811688968446, 6967974.89894060138613 ], [ 348825.372724099317566, 6967876.763591946102679 ], [ 348818.151265033346135, 6967778.864659942686558 ], [ 348806.134831618517637, 6967681.437991690821946 ], [ 348789.35237249545753, 6967584.718296568840742 ], [ 348767.844318078074139, 6967488.938580795191228 ], [ 348741.66248315339908, 6967394.329586092382669 ], [ 348710.869942055025604, 6967301.119233816862106 ], [ 348675.540876711544115, 6967209.532075870782137 ], [ 348635.760397935868241, 6967119.788753740489483 ], [ 348591.624340385664254, 6967032.105466949753463 ], [ 348543.239031689532567, 6966946.693452214822173 ], [ 348490.721036294067744, 6966863.758474562317133 ], [ 348434.196874650253449, 6966783.500331616960466 ], [ 348373.802718414459378, 6966706.112372274510562 ], [ 348309.684062398911919, 6966631.781030907295644 ], [ 348241.995374062040355, 6966560.685378228314221 ], [ 348170.899721383000724, 6966492.996689891442657 ], [ 348096.568380016251467, 6966428.878033875487745 ], [ 348019.180420673859771, 6966368.483877640217543 ], [ 347938.922277728153858, 6966311.959715995937586 ], [ 347855.987300075415988, 6966259.441720601171255 ], [ 347770.575285340950359, 6966211.056411904282868 ], [ 347682.891998549515847, 6966166.920354354195297 ], [ 347593.148676419164985, 6966127.139875578694046 ], [ 347501.561518473434262, 6966091.810810235328972 ], [ 347408.351166197913699, 6966061.018269136548042 ], [ 347313.742171495512594, 6966034.836434212513268 ], [ 347217.962455721222796, 6966013.328379794955254 ], [ 347121.242760599707253, 6965996.545920671895146 ], [ 347023.816092348075472, 6965984.529487256892025 ], [ 346925.917160343786236, 6965977.308028191328049 ], [ 346827.781811688968446, 6965974.89894060138613 ], [ 346729.646463034150656, 6965977.308028191328049 ], [ 346631.74753102986142, 6965984.529487256892025 ], [ 346534.320862778229639, 6965996.545920671895146 ], [ 346437.601167656714097, 6966013.328379794955254 ], [ 346341.821451882424299, 6966034.836434212513268 ], [ 346247.212457180023193, 6966061.018269136548042 ], [ 346154.00210490450263, 6966091.810810235328972 ], [ 346062.414946958771907, 6966127.139875578694046 ], [ 345972.671624828421045, 6966166.920354354195297 ], [ 345884.988338036986534, 6966211.056411904282868 ], [ 345799.576323302520905, 6966259.441720601171255 ], [ 345716.641345649783034, 6966311.959715995937586 ], [ 345636.383202704077121, 6966368.483877640217543 ], [ 345558.995243361685425, 6966428.878033875487745 ], [ 345484.663901994936168, 6966492.996689891442657 ], [ 345413.568249315896537, 6966560.685378228314221 ], [ 345345.879560979024973, 6966631.781030907295644 ], [ 345281.760904963477515, 6966706.112372274510562 ], [ 345221.366748727683444, 6966783.500331616960466 ], [ 345164.842587083869148, 6966863.758474562317133 ], [ 345112.324591688404325, 6966946.693452214822173 ], [ 345063.939282992272638, 6967032.105466949753463 ], [ 345019.803225442068651, 6967119.788753740489483 ], [ 344980.022746666392777, 6967209.532075870782137 ], [ 344944.693681322911289, 6967301.119233816862106 ], [ 344913.901140224537812, 6967394.329586092382669 ], [ 344887.719305299862754, 6967488.938580795191228 ], [ 344866.211250882479362, 6967584.718296568840742 ], [ 344849.428791759419255, 6967681.437991690821946 ], [ 344837.412358344590757, 6967778.864659942686558 ], [ 344830.190899278619327, 6967876.763591946102679 ], [ 344827.781811688968446, 6967974.89894060138613 ], [ 344830.190899278619327, 6968073.034289256669581 ], [ 344837.412358344590757, 6968170.933221260085702 ], [ 344849.428791759419255, 6968268.359889511950314 ], [ 344866.211250882479362, 6968365.079584633931518 ], [ 344887.719305299862754, 6968460.859300407581031 ], [ 344913.901140224537812, 6968555.46829511038959 ], [ 344944.693681322911289, 6968648.678647385910153 ], [ 344980.022746666392777, 6968740.265805331990123 ], [ 345019.803225442068651, 6968830.009127462282777 ], [ 345063.939282992272638, 6968917.692414253018796 ], [ 345112.324591688404325, 6969003.104428987950087 ], [ 345164.842587083869148, 6969086.039406640455127 ], [ 345221.366748727683444, 6969166.297549585811794 ], [ 345281.760904963477515, 6969243.685508928261697 ], [ 345345.879560979024973, 6969318.016850295476615 ], [ 345413.568249315896537, 6969389.112502974458039 ], [ 345484.663901994936168, 6969456.801191311329603 ], [ 345558.995243361685425, 6969520.919847327284515 ], [ 345636.383202704077121, 6969581.314003562554717 ], [ 345716.641345649783034, 6969637.838165206834674 ], [ 345799.576323302520905, 6969690.356160601601005 ], [ 345884.988338036986534, 6969738.741469298489392 ], [ 345972.671624828421045, 6969782.877526848576963 ], [ 346062.414946958771907, 6969822.658005624078214 ], [ 346154.00210490450263, 6969857.987070967443287 ], [ 346247.212457180023193, 6969888.779612066224217 ], [ 346341.821451882424299, 6969914.961446990258992 ], [ 346437.601167656714097, 6969936.469501407817006 ], [ 346534.320862778229639, 6969953.251960530877113 ], [ 346631.74753102986142, 6969965.268393945880234 ], [ 346729.646463034150656, 6969972.489853011444211 ], [ 346827.781811688968446, 6969974.89894060138613 ], [ 346925.917160343786236, 6969972.489853011444211 ], [ 347023.816092348075472, 6969965.268393945880234 ], [ 347121.242760599707253, 6969953.251960530877113 ], [ 347217.962455721222796, 6969936.469501407817006 ], [ 347313.742171495512594, 6969914.961446990258992 ], [ 347408.351166197913699, 6969888.779612066224217 ], [ 347501.561518473434262, 6969857.987070967443287 ], [ 347593.148676419164985, 6969822.658005624078214 ], [ 347682.891998549515847, 6969782.877526848576963 ], [ 347770.575285340950359, 6969738.741469298489392 ], [ 347855.987300075415988, 6969690.356160601601005 ], [ 347938.922277728153858, 6969637.838165206834674 ], [ 348019.180420673859771, 6969581.314003562554717 ], [ 348096.568380016251467, 6969520.919847327284515 ], [ 348170.899721383000724, 6969456.801191311329603 ], [ 348241.995374062040355, 6969389.112502974458039 ], [ 348309.684062398911919, 6969318.016850295476615 ], [ 348373.802718414459378, 6969243.685508928261697 ], [ 348434.196874650253449, 6969166.297549585811794 ], [ 348490.721036294067744, 6969086.039406640455127 ], [ 348543.239031689532567, 6969003.104428987950087 ], [ 348591.624340385664254, 6968917.692414253018796 ], [ 348635.760397935868241, 6968830.009127462282777 ], [ 348675.540876711544115, 6968740.265805331990123 ], [ 348710.869942055025604, 6968648.678647385910153 ], [ 348741.66248315339908, 6968555.46829511038959 ], [ 348767.844318078074139, 6968460.859300407581031 ], [ 348789.35237249545753, 6968365.079584633931518 ], [ 348806.134831618517637, 6968268.359889511950314 ], [ 348818.151265033346135, 6968170.933221260085702 ], [ 348825.372724099317566, 6968073.034289256669581 ], [ 348827.781811688968446, 6967974.89894060138613 ] ] ] } },
{ "type": "Feature", "properties": { "id_x": 4, "Nom": "Goury", "min_x": -3.7400000095367432, "max_x": 100.37000274658203, "mean_x": 18.476769866041977, "count_x": 462309, "sum_x": 8541977.0, "std_x": 28.454149481225897, "median_x": 0.0, "majority_x": -0.0, "minority_x": -3.7400000095367432, "unique_x": 7183, "range_x": 104.11000275611877, "id_y": 4, "min_y": -3.7400000095367432, "max_y": 100.37000274658203, "mean_y": 18.476769866041977, "count_y": 462309, "sum_y": 8541977.0, "std_y": 28.454149481225897, "median_y": 0.0, "majority_y": -0.0, "minority_y": -3.7400000095367432, "unique_y": 7183, "range_y": 104.11000275611877, "hs_min_x": 5.6308660507202148, "hs_max_x": 5.6308660507202148, "hs_mean_x": 5.6308660507202148, "hs_std_x": 0.0, "id": 4, "min": -3.7400000095367432, "max": 100.37000274658203, "mean": 18.476769866041977, "count": 462309, "sum": 8541977.0, "std": 28.454149481225897, "median": 0.0, "majority": -0.0, "minority": -3.7400000095367432, "unique": 7183, "range": 104.11000275611877, "hs_min_y": 5.6308660507202148, "hs_max_y": 5.6308660507202148, "hs_mean_y": 5.6308660507202148, "hs_std_y": 0.0, "dir_min": 255.76129150390625, "dir_max": 255.76129150390625, "dir_mean": 255.76129150390625, "dir_std": 0.0 }, "geometry": { "type": "Polygon", "coordinates": [ [ [ 345297.986921351985075, 6968539.060876765288413 ], [ 345295.577833762334194, 6968440.925528110004961 ], [ 345288.356374696362764, 6968343.02659610658884 ], [ 345276.339941281534266, 6968245.599927854724228 ], [ 345259.557482158474158, 6968148.880232732743025 ], [ 345238.049427741090767, 6968053.100516959093511 ], [ 345211.867592816415709, 6967958.491522256284952 ], [ 345181.075051718042232, 6967865.281169980764389 ], [ 345145.745986374560744, 6967773.69401203468442 ], [ 345105.965507598884869, 6967683.950689904391766 ], [ 345061.829450048680883, 6967596.267403113655746 ], [ 345013.444141352549195, 6967510.855388378724456 ], [ 344960.926145957084373, 6967427.920410726219416 ], [ 344904.401984313270077, 6967347.662267780862749 ], [ 344844.007828077476006, 6967270.274308438412845 ], [ 344779.889172061928548, 6967195.942967071197927 ], [ 344712.200483725056984, 6967124.847314392216504 ], [ 344641.104831046017352, 6967057.158626055344939 ], [ 344566.773489679268096, 6966993.039970039390028 ], [ 344489.3855303368764, 6966932.645813804119825 ], [ 344409.127387391170487, 6966876.121652159839869 ], [ 344326.192409738432616, 6966823.603656765073538 ], [ 344240.780395003966987, 6966775.218348068185151 ], [ 344153.097108212532476, 6966731.082290518097579 ], [ 344063.353786082181614, 6966691.301811742596328 ], [ 343971.76662813645089, 6966655.972746399231255 ], [ 343878.556275860930327, 6966625.180205300450325 ], [ 343783.947281158529222, 6966598.998370376415551 ], [ 343688.167565384239424, 6966577.490315958857536 ], [ 343591.447870262723882, 6966560.707856835797429 ], [ 343494.0212020110921, 6966548.691423420794308 ], [ 343396.122270006802864, 6966541.469964355230331 ], [ 343297.986921351985075, 6966539.060876765288413 ], [ 343199.851572697167285, 6966541.469964355230331 ], [ 343101.952640692878049, 6966548.691423420794308 ], [ 343004.525972441246267, 6966560.707856835797429 ], [ 342907.806277319730725, 6966577.490315958857536 ], [ 342812.026561545440927, 6966598.998370376415551 ], [ 342717.417566843039822, 6966625.180205300450325 ], [ 342624.207214567519259, 6966655.972746399231255 ], [ 342532.620056621788535, 6966691.301811742596328 ], [ 342442.876734491437674, 6966731.082290518097579 ], [ 342355.193447700003162, 6966775.218348068185151 ], [ 342269.781432965537533, 6966823.603656765073538 ], [ 342186.846455312799662, 6966876.121652159839869 ], [ 342106.588312367093749, 6966932.645813804119825 ], [ 342029.200353024702054, 6966993.039970039390028 ], [ 341954.869011657952797, 6967057.158626055344939 ], [ 341883.773358978913166, 6967124.847314392216504 ], [ 341816.084670642041601, 6967195.942967071197927 ], [ 341751.966014626494143, 6967270.274308438412845 ], [ 341691.571858390700072, 6967347.662267780862749 ], [ 341635.047696746885777, 6967427.920410726219416 ], [ 341582.529701351420954, 6967510.855388378724456 ], [ 341534.144392655289266, 6967596.267403113655746 ], [ 341490.00833510508528, 6967683.950689904391766 ], [ 341450.227856329409406, 6967773.69401203468442 ], [ 341414.898790985927917, 6967865.281169980764389 ], [ 341384.106249887554441, 6967958.491522256284952 ], [ 341357.924414962879382, 6968053.100516959093511 ], [ 341336.416360545495991, 6968148.880232732743025 ], [ 341319.633901422435883, 6968245.599927854724228 ], [ 341307.617468007607386, 6968343.02659610658884 ], [ 341300.396008941635955, 6968440.925528110004961 ], [ 341297.986921351985075, 6968539.060876765288413 ], [ 341300.396008941635955, 6968637.196225420571864 ], [ 341307.617468007607386, 6968735.095157423987985 ], [ 341319.633901422435883, 6968832.521825675852597 ], [ 341336.416360545495991, 6968929.2415207978338 ], [ 341357.924414962879382, 6969025.021236571483314 ], [ 341384.106249887554441, 6969119.630231274291873 ], [ 341414.898790985927917, 6969212.840583549812436 ], [ 341450.227856329409406, 6969304.427741495892406 ], [ 341490.00833510508528, 6969394.17106362618506 ], [ 341534.144392655289266, 6969481.854350416921079 ], [ 341582.529701351420954, 6969567.266365151852369 ], [ 341635.047696746885777, 6969650.201342804357409 ], [ 341691.571858390700072, 6969730.459485749714077 ], [ 341751.966014626494143, 6969807.84744509216398 ], [ 341816.084670642041601, 6969882.178786459378898 ], [ 341883.773358978913166, 6969953.274439138360322 ], [ 341954.869011657952797, 6970020.963127475231886 ], [ 342029.200353024702054, 6970085.081783491186798 ], [ 342106.588312367093749, 6970145.475939726457 ], [ 342186.846455312799662, 6970202.000101370736957 ], [ 342269.781432965537533, 6970254.518096765503287 ], [ 342355.193447700003162, 6970302.903405462391675 ], [ 342442.876734491437674, 6970347.039463012479246 ], [ 342532.620056621788535, 6970386.819941787980497 ], [ 342624.207214567519259, 6970422.14900713134557 ], [ 342717.417566843039822, 6970452.9415482301265 ], [ 342812.026561545440927, 6970479.123383154161274 ], [ 342907.806277319730725, 6970500.631437571719289 ], [ 343004.525972441246267, 6970517.413896694779396 ], [ 343101.952640692878049, 6970529.430330109782517 ], [ 343199.851572697167285, 6970536.651789175346494 ], [ 343297.986921351985075, 6970539.060876765288413 ], [ 343396.122270006802864, 6970536.651789175346494 ], [ 343494.0212020110921, 6970529.430330109782517 ], [ 343591.447870262723882, 6970517.413896694779396 ], [ 343688.167565384239424, 6970500.631437571719289 ], [ 343783.947281158529222, 6970479.123383154161274 ], [ 343878.556275860930327, 6970452.9415482301265 ], [ 343971.76662813645089, 6970422.14900713134557 ], [ 344063.353786082181614, 6970386.819941787980497 ], [ 344153.097108212532476, 6970347.039463012479246 ], [ 344240.780395003966987, 6970302.903405462391675 ], [ 344326.192409738432616, 6970254.518096765503287 ], [ 344409.127387391170487, 6970202.000101370736957 ], [ 344489.3855303368764, 6970145.475939726457 ], [ 344566.773489679268096, 6970085.081783491186798 ], [ 344641.104831046017352, 6970020.963127475231886 ], [ 344712.200483725056984, 6969953.274439138360322 ], [ 344779.889172061928548, 6969882.178786459378898 ], [ 344844.007828077476006, 6969807.84744509216398 ], [ 344904.401984313270077, 6969730.459485749714077 ], [ 344960.926145957084373, 6969650.201342804357409 ], [ 345013.444141352549195, 6969567.266365151852369 ], [ 345061.829450048680883, 6969481.854350416921079 ], [ 345105.965507598884869, 6969394.17106362618506 ], [ 345145.745986374560744, 6969304.427741495892406 ], [ 345181.075051718042232, 6969212.840583549812436 ], [ 345211.867592816415709, 6969119.630231274291873 ], [ 345238.049427741090767, 6969025.021236571483314 ], [ 345259.557482158474158, 6968929.2415207978338 ], [ 345276.339941281534266, 6968832.521825675852597 ], [ 345288.356374696362764, 6968735.095157423987985 ], [ 345295.577833762334194, 6968637.196225420571864 ], [ 345297.986921351985075, 6968539.060876765288413 ] ] ] } },
{ "type": "Feature", "properties": { "id_x": 1, "Nom": "Cape du Rozel", "min_x": -4.1100001335144043, "max_x": 93.089996337890625, "mean_x": 12.773923813705727, "count_x": 450921, "sum_x": 5760030.5, "std_x": 22.207886459846197, "median_x": 0.0, "majority_x": -0.0, "minority_x": -3.9900000095367432, "unique_x": 6732, "range_x": 97.199996471405029, "id_y": 1, "min_y": -4.1100001335144043, "max_y": 93.089996337890625, "mean_y": 12.773923813705727, "count_y": 450921, "sum_y": 5760030.5, "std_y": 22.207886459846197, "median_y": 0.0, "majority_y": -0.0, "minority_y": -3.9900000095367432, "unique_y": 6732, "range_y": 97.199996471405029, "hs_min_x": 3.095963716506958, "hs_max_x": 3.796046257019043, "hs_mean_x": 3.4460048675537109, "hs_std_x": 0.3500412702560628, "id": 1, "min": -4.1100001335144043, "max": 93.089996337890625, "mean": 12.773923813705727, "count": 450921, "sum": 5760030.5, "std": 22.207886459846197, "median": 0.0, "majority": -0.0, "minority": -3.9900000095367432, "unique": 6732, "range": 97.199996471405029, "hs_min_y": 3.095963716506958, "hs_max_y": 3.796046257019043, "hs_mean_y": 3.4460048675537109, "hs_std_y": 0.3500412702560628, "dir_min": 292.31784057617188, "dir_max": 308.42636108398438, "dir_mean": 300.37210083007812, "dir_std": 8.05426025390625 }, "geometry": { "type": "Polygon", "coordinates": [ [ [ 350843.528797819919419, 6941365.35135655850172 ], [ 350841.119710230268538, 6941267.216007903218269 ], [ 350833.898251164297108, 6941169.317075899802148 ], [ 350821.88181774946861, 6941071.890407647937536 ], [ 350805.099358626408502, 6940975.170712525956333 ], [ 350783.591304209025111, 6940879.390996752306819 ], [ 350757.409469284350052, 6940784.78200204949826 ], [ 350726.616928185976576, 6940691.571649773977697 ], [ 350691.287862842495088, 6940599.984491827897727 ], [ 350651.507384066819213, 6940510.241169697605073 ], [ 350607.371326516615227, 6940422.557882906869054 ], [ 350558.986017820483539, 6940337.145868171937764 ], [ 350506.468022425018717, 6940254.210890519432724 ], [ 350449.943860781204421, 6940173.952747574076056 ], [ 350389.54970454541035, 6940096.564788231626153 ], [ 350325.431048529862892, 6940022.233446864411235 ], [ 350257.742360192991327, 6939951.137794185429811 ], [ 350186.646707513951696, 6939883.449105848558247 ], [ 350112.31536614720244, 6939819.330449832603335 ], [ 350034.927406804810744, 6939758.936293597333133 ], [ 349954.669263859104831, 6939702.412131953053176 ], [ 349871.73428620636696, 6939649.894136558286846 ], [ 349786.322271471901331, 6939601.508827861398458 ], [ 349698.63898468046682, 6939557.372770311310887 ], [ 349608.895662550115958, 6939517.592291535809636 ], [ 349517.308504604385234, 6939482.263226192444563 ], [ 349424.098152328864671, 6939451.470685093663633 ], [ 349329.489157626463566, 6939425.288850169628859 ], [ 349233.709441852173768, 6939403.780795752070844 ], [ 349136.989746730658226, 6939386.998336629010737 ], [ 349039.563078479026444, 6939374.981903214007616 ], [ 348941.664146474737208, 6939367.760444148443639 ], [ 348843.528797819919419, 6939365.35135655850172 ], [ 348745.393449165101629, 6939367.760444148443639 ], [ 348647.494517160812393, 6939374.981903214007616 ], [ 348550.067848909180611, 6939386.998336629010737 ], [ 348453.348153787665069, 6939403.780795752070844 ], [ 348357.568438013375271, 6939425.288850169628859 ], [ 348262.959443310974166, 6939451.470685093663633 ], [ 348169.749091035453603, 6939482.263226192444563 ], [ 348078.161933089722879, 6939517.592291535809636 ], [ 347988.418610959372018, 6939557.372770311310887 ], [ 347900.735324167937506, 6939601.508827861398458 ], [ 347815.323309433471877, 6939649.894136558286846 ], [ 347732.388331780734006, 6939702.412131953053176 ], [ 347652.130188835028093, 6939758.936293597333133 ], [ 347574.742229492636397, 6939819.330449832603335 ], [ 347500.410888125887141, 6939883.449105848558247 ], [ 347429.31523544684751, 6939951.137794185429811 ], [ 347361.626547109975945, 6940022.233446864411235 ], [ 347297.507891094428487, 6940096.564788231626153 ], [ 347237.113734858634416, 6940173.952747574076056 ], [ 347180.58957321482012, 6940254.210890519432724 ], [ 347128.071577819355298, 6940337.145868171937764 ], [ 347079.68626912322361, 6940422.557882906869054 ], [ 347035.550211573019624, 6940510.241169697605073 ], [ 346995.76973279734375, 6940599.984491827897727 ], [ 346960.440667453862261, 6940691.571649773977697 ], [ 346929.648126355488785, 6940784.78200204949826 ], [ 346903.466291430813726, 6940879.390996752306819 ], [ 346881.958237013430335, 6940975.170712525956333 ], [ 346865.175777890370227, 6941071.890407647937536 ], [ 346853.159344475541729, 6941169.317075899802148 ], [ 346845.937885409570299, 6941267.216007903218269 ], [ 346843.528797819919419, 6941365.35135655850172 ], [ 346845.937885409570299, 6941463.486705213785172 ], [ 346853.159344475541729, 6941561.385637217201293 ], [ 346865.175777890370227, 6941658.812305469065905 ], [ 346881.958237013430335, 6941755.532000591047108 ], [ 346903.466291430813726, 6941851.311716364696622 ], [ 346929.648126355488785, 6941945.920711067505181 ], [ 346960.440667453862261, 6942039.131063343025744 ], [ 346995.76973279734375, 6942130.718221289105713 ], [ 347035.550211573019624, 6942220.461543419398367 ], [ 347079.68626912322361, 6942308.144830210134387 ], [ 347128.071577819355298, 6942393.556844945065677 ], [ 347180.58957321482012, 6942476.491822597570717 ], [ 347237.113734858634416, 6942556.749965542927384 ], [ 347297.507891094428487, 6942634.137924885377288 ], [ 347361.626547109975945, 6942708.469266252592206 ], [ 347429.31523544684751, 6942779.564918931573629 ], [ 347500.410888125887141, 6942847.253607268445194 ], [ 347574.742229492636397, 6942911.372263284400105 ], [ 347652.130188835028093, 6942971.766419519670308 ], [ 347732.388331780734006, 6943028.290581163950264 ], [ 347815.323309433471877, 6943080.808576558716595 ], [ 347900.735324167937506, 6943129.193885255604982 ], [ 347988.418610959372018, 6943173.329942805692554 ], [ 348078.161933089722879, 6943213.110421581193805 ], [ 348169.749091035453603, 6943248.439486924558878 ], [ 348262.959443310974166, 6943279.232028023339808 ], [ 348357.568438013375271, 6943305.413862947374582 ], [ 348453.348153787665069, 6943326.921917364932597 ], [ 348550.067848909180611, 6943343.704376487992704 ], [ 348647.494517160812393, 6943355.720809902995825 ], [ 348745.393449165101629, 6943362.942268968559802 ], [ 348843.528797819919419, 6943365.35135655850172 ], [ 348941.664146474737208, 6943362.942268968559802 ], [ 349039.563078479026444, 6943355.720809902995825 ], [ 349136.989746730658226, 6943343.704376487992704 ], [ 349233.709441852173768, 6943326.921917364932597 ], [ 349329.489157626463566, 6943305.413862947374582 ], [ 349424.098152328864671, 6943279.232028023339808 ], [ 349517.308504604385234, 6943248.439486924558878 ], [ 349608.895662550115958, 6943213.110421581193805 ], [ 349698.63898468046682, 6943173.329942805692554 ], [ 349786.322271471901331, 6943129.193885255604982 ], [ 349871.73428620636696, 6943080.808576558716595 ], [ 349954.669263859104831, 6943028.290581163950264 ], [ 350034.927406804810744, 6942971.766419519670308 ], [ 350112.31536614720244, 6942911.372263284400105 ], [ 350186.646707513951696, 6942847.253607268445194 ], [ 350257.742360192991327, 6942779.564918931573629 ], [ 350325.431048529862892, 6942708.469266252592206 ], [ 350389.54970454541035, 6942634.137924885377288 ], [ 350449.943860781204421, 6942556.749965542927384 ], [ 350506.468022425018717, 6942476.491822597570717 ], [ 350558.986017820483539, 6942393.556844945065677 ], [ 350607.371326516615227, 6942308.144830210134387 ], [ 350651.507384066819213, 6942220.461543419398367 ], [ 350691.287862842495088, 6942130.718221289105713 ], [ 350726.616928185976576, 6942039.131063343025744 ], [ 350757.409469284350052, 6941945.920711067505181 ], [ 350783.591304209025111, 6941851.311716364696622 ], [ 350805.099358626408502, 6941755.532000591047108 ], [ 350821.88181774946861, 6941658.812305469065905 ], [ 350833.898251164297108, 6941561.385637217201293 ], [ 350841.119710230268538, 6941463.486705213785172 ], [ 350843.528797819919419, 6941365.35135655850172 ] ] ] } },
{ "type": "Feature", "properties": { "id_x": 3, "Nom": "Bain d'écalgrain", "min_x": -3.9800000190734863, "max_x": 169.38999938964844, "mean_x": 61.493832074803258, "count_x": 502438, "sum_x": 30896838.0, "std_x": 51.946777741799167, "median_x": 77.260002136230469, "majority_x": -0.0, "minority_x": -3.9800000190734863, "unique_x": 11912, "range_x": 173.36999940872192, "id_y": 3, "min_y": -3.9800000190734863, "max_y": 169.38999938964844, "mean_y": 61.493832074803258, "count_y": 502438, "sum_y": 30896838.0, "std_y": 51.946777741799167, "median_y": 77.260002136230469, "majority_y": -0.0, "minority_y": -3.9800000190734863, "unique_y": 11912, "range_y": 173.36999940872192, "hs_min_x": 5.8613924980163574, "hs_max_x": 5.8613924980163574, "hs_mean_x": 5.8613924980163574, "hs_std_x": 0.0, "id": 3, "min": -3.9800000190734863, "max": 169.38999938964844, "mean": 61.493832074803258, "count": 502438, "sum": 30896838.0, "std": 51.946777741799167, "median": 77.260002136230469, "majority": -0.0, "minority": -3.9800000190734863, "unique": 11912, "range": 173.36999940872192, "hs_min_y": 5.8613924980163574, "hs_max_y": 5.8613924980163574, "hs_mean_y": 5.8613924980163574, "hs_std_y": 0.0, "dir_min": 338.954345703125, "dir_max": 338.954345703125, "dir_mean": 338.954345703125, "dir_std": 0.0 }, "geometry": { "type": "Polygon", "coordinates": [ [ [ 345889.462309409340378, 6965718.335996466688812 ], [ 345887.053221819689497, 6965620.200647811405361 ], [ 345879.831762753718067, 6965522.30171580798924 ], [ 345867.815329338889569, 6965424.875047556124628 ], [ 345851.032870215829462, 6965328.155352434143424 ], [ 345829.52481579844607, 6965232.37563666049391 ], [ 345803.342980873771012, 6965137.766641957685351 ], [ 345772.550439775397535, 6965044.556289682164788 ], [ 345737.221374431916047, 6964952.969131736084819 ], [ 345697.440895656240173, 6964863.225809605792165 ], [ 345653.304838106036186, 6964775.542522815056145 ], [ 345604.919529409904499, 6964690.130508080124855 ], [ 345552.401534014439676, 6964607.195530427619815 ], [ 345495.87737237062538, 6964526.937387482263148 ], [ 345435.483216134831309, 6964449.549428139813244 ], [ 345371.364560119283851, 6964375.218086772598326 ], [ 345303.675871782412287, 6964304.122434093616903 ], [ 345232.580219103372656, 6964236.433745756745338 ], [ 345158.248877736623399, 6964172.315089740790427 ], [ 345080.860918394231703, 6964111.920933505520225 ], [ 345000.60277544852579, 6964055.396771861240268 ], [ 344917.667797795787919, 6964002.878776466473937 ], [ 344832.25578306132229, 6963954.49346776958555 ], [ 344744.572496269887779, 6963910.357410219497979 ], [ 344654.829174139536917, 6963870.576931443996727 ], [ 344563.242016193806194, 6963835.247866100631654 ], [ 344470.031663918285631, 6963804.455325001850724 ], [ 344375.422669215884525, 6963778.27349007781595 ], [ 344279.642953441594727, 6963756.765435660257936 ], [ 344182.923258320079185, 6963739.982976537197828 ], [ 344085.496590068447404, 6963727.966543122194707 ], [ 343987.597658064158168, 6963720.745084056630731 ], [ 343889.462309409340378, 6963718.335996466688812 ], [ 343791.326960754522588, 6963720.745084056630731 ], [ 343693.428028750233352, 6963727.966543122194707 ], [ 343596.001360498601571, 6963739.982976537197828 ], [ 343499.281665377086028, 6963756.765435660257936 ], [ 343403.50194960279623, 6963778.27349007781595 ], [ 343308.892954900395125, 6963804.455325001850724 ], [ 343215.682602624874562, 6963835.247866100631654 ], [ 343124.095444679143839, 6963870.576931443996727 ], [ 343034.352122548792977, 6963910.357410219497979 ], [ 342946.668835757358465, 6963954.49346776958555 ], [ 342861.256821022892836, 6964002.878776466473937 ], [ 342778.321843370154966, 6964055.396771861240268 ], [ 342698.063700424449053, 6964111.920933505520225 ], [ 342620.675741082057357, 6964172.315089740790427 ], [ 342546.3443997153081, 6964236.433745756745338 ], [ 342475.248747036268469, 6964304.122434093616903 ], [ 342407.560058699396905, 6964375.218086772598326 ], [ 342343.441402683849446, 6964449.549428139813244 ], [ 342283.047246448055375, 6964526.937387482263148 ], [ 342226.52308480424108, 6964607.195530427619815 ], [ 342174.005089408776257, 6964690.130508080124855 ], [ 342125.61978071264457, 6964775.542522815056145 ], [ 342081.483723162440583, 6964863.225809605792165 ], [ 342041.703244386764709, 6964952.969131736084819 ], [ 342006.37417904328322, 6965044.556289682164788 ], [ 341975.581637944909744, 6965137.766641957685351 ], [ 341949.399803020234685, 6965232.37563666049391 ], [ 341927.891748602851294, 6965328.155352434143424 ], [ 341911.109289479791187, 6965424.875047556124628 ], [ 341899.092856064962689, 6965522.30171580798924 ], [ 341891.871396998991258, 6965620.200647811405361 ], [ 341889.462309409340378, 6965718.335996466688812 ], [ 341891.871396998991258, 6965816.471345121972263 ], [ 341899.092856064962689, 6965914.370277125388384 ], [ 341911.109289479791187, 6966011.796945377252996 ], [ 341927.891748602851294, 6966108.5166404992342 ], [ 341949.399803020234685, 6966204.296356272883713 ], [ 341975.581637944909744, 6966298.905350975692272 ], [ 342006.37417904328322, 6966392.115703251212835 ], [ 342041.703244386764709, 6966483.702861197292805 ], [ 342081.483723162440583, 6966573.446183327585459 ], [ 342125.61978071264457, 6966661.129470118321478 ], [ 342174.005089408776257, 6966746.541484853252769 ], [ 342226.52308480424108, 6966829.476462505757809 ], [ 342283.047246448055375, 6966909.734605451114476 ], [ 342343.441402683849446, 6966987.122564793564379 ], [ 342407.560058699396905, 6967061.453906160779297 ], [ 342475.248747036268469, 6967132.549558839760721 ], [ 342546.3443997153081, 6967200.238247176632285 ], [ 342620.675741082057357, 6967264.356903192587197 ], [ 342698.063700424449053, 6967324.751059427857399 ], [ 342778.321843370154966, 6967381.275221072137356 ], [ 342861.256821022892836, 6967433.793216466903687 ], [ 342946.668835757358465, 6967482.178525163792074 ], [ 343034.352122548792977, 6967526.314582713879645 ], [ 343124.095444679143839, 6967566.095061489380896 ], [ 343215.682602624874562, 6967601.424126832745969 ], [ 343308.892954900395125, 6967632.216667931526899 ], [ 343403.50194960279623, 6967658.398502855561674 ], [ 343499.281665377086028, 6967679.906557273119688 ], [ 343596.001360498601571, 6967696.689016396179795 ], [ 343693.428028750233352, 6967708.705449811182916 ], [ 343791.326960754522588, 6967715.926908876746893 ], [ 343889.462309409340378, 6967718.335996466688812 ], [ 343987.597658064158168, 6967715.926908876746893 ], [ 344085.496590068447404, 6967708.705449811182916 ], [ 344182.923258320079185, 6967696.689016396179795 ], [ 344279.642953441594727, 6967679.906557273119688 ], [ 344375.422669215884525, 6967658.398502855561674 ], [ 344470.031663918285631, 6967632.216667931526899 ], [ 344563.242016193806194, 6967601.424126832745969 ], [ 344654.829174139536917, 6967566.095061489380896 ], [ 344744.572496269887779, 6967526.314582713879645 ], [ 344832.25578306132229, 6967482.178525163792074 ], [ 344917.667797795787919, 6967433.793216466903687 ], [ 345000.60277544852579, 6967381.275221072137356 ], [ 345080.860918394231703, 6967324.751059427857399 ], [ 345158.248877736623399, 6967264.356903192587197 ], [ 345232.580219103372656, 6967200.238247176632285 ], [ 345303.675871782412287, 6967132.549558839760721 ], [ 345371.364560119283851, 6967061.453906160779297 ], [ 345435.483216134831309, 6966987.122564793564379 ], [ 345495.87737237062538, 6966909.734605451114476 ], [ 345552.401534014439676, 6966829.476462505757809 ], [ 345604.919529409904499, 6966746.541484853252769 ], [ 345653.304838106036186, 6966661.129470118321478 ], [ 345697.440895656240173, 6966573.446183327585459 ], [ 345737.221374431916047, 6966483.702861197292805 ], [ 345772.550439775397535, 6966392.115703251212835 ], [ 345803.342980873771012, 6966298.905350975692272 ], [ 345829.52481579844607, 6966204.296356272883713 ], [ 345851.032870215829462, 6966108.5166404992342 ], [ 345867.815329338889569, 6966011.796945377252996 ], [ 345879.831762753718067, 6965914.370277125388384 ], [ 345887.053221819689497, 6965816.471345121972263 ], [ 345889.462309409340378, 6965718.335996466688812 ] ] ] } },
{ "type": "Feature", "properties": { "id_x": 4, "Nom": "Sainte Vaast-la-hougue", "min_x": -1.2300000190734863, "max_x": 24.430000305175781, "mean_x": 1.0361947052805884, "count_x": 502444, "sum_x": 520629.8125, "std_x": 1.9606632054770519, "median_x": 0.0, "majority_x": -0.0, "minority_x": -1.2300000190734863, "unique_x": 1350, "range_x": 25.660000324249268, "id_y": 4, "min_y": -1.2300000190734863, "max_y": 24.430000305175781, "mean_y": 1.0361947052805884, "count_y": 502444, "sum_y": 520629.8125, "std_y": 1.9606632054770519, "median_y": 0.0, "majority_y": -0.0, "minority_y": -1.2300000190734863, "unique_y": 1350, "range_y": 25.660000324249268, "hs_min_x": 3.7913413047790527, "hs_max_x": 3.7913413047790527, "hs_mean_x": 3.7913413047790527, "hs_std_x": 0.0, "id": 4, "min": -1.2300000190734863, "max": 24.430000305175781, "mean": 1.0361947052805884, "count": 502444, "sum": 520629.8125, "std": 1.9606632054770519, "median": 0.0, "majority": -0.0, "minority": -1.2300000190734863, "unique": 1350, "range": 25.660000324249268, "hs_min_y": 3.7913413047790527, "hs_max_y": 3.7913413047790527, "hs_mean_y": 3.7913413047790527, "hs_std_y": 0.0, "dir_min": 61.704395294189453, "dir_max": 61.704395294189453, "dir_mean": 61.704395294189453, "dir_std": 0.0 }, "geometry": { "type": "Polygon", "coordinates": [ [ [ 393025.907501813140698, 6950441.134799681603909 ], [ 393023.498414223489817, 6950342.999451026320457 ], [ 393016.276955157518387, 6950245.100519022904336 ], [ 393004.260521742689889, 6950147.673850771039724 ], [ 392987.478062619629782, 6950050.954155649058521 ], [ 392965.97000820224639, 6949955.174439875409007 ], [ 392939.788173277571332, 6949860.565445172600448 ], [ 392908.995632179197855, 6949767.355092897079885 ], [ 392873.666566835716367, 6949675.767934950999916 ], [ 392833.886088060040493, 6949586.024612820707262 ], [ 392789.750030509836506, 6949498.341326029971242 ], [ 392741.364721813704818, 6949412.929311295039952 ], [ 392688.846726418239996, 6949329.994333642534912 ], [ 392632.3225647744257, 6949249.736190697178245 ], [ 392571.928408538631629, 6949172.348231354728341 ], [ 392507.809752523084171, 6949098.016889987513423 ], [ 392440.121064186212607, 6949026.921237308532 ], [ 392369.025411507172976, 6948959.232548971660435 ], [ 392294.694070140423719, 6948895.113892955705523 ], [ 392217.306110798032023, 6948834.719736720435321 ], [ 392137.04796785232611, 6948778.195575076155365 ], [ 392054.112990199588239, 6948725.677579681389034 ], [ 391968.70097546512261, 6948677.292270984500647 ], [ 391881.017688673688099, 6948633.156213434413075 ], [ 391791.274366543337237, 6948593.375734658911824 ], [ 391699.687208597606514, 6948558.046669315546751 ], [ 391606.476856322085951, 6948527.254128216765821 ], [ 391511.867861619684845, 6948501.072293292731047 ], [ 391416.088145845395047, 6948479.564238875173032 ], [ 391319.368450723879505, 6948462.781779752112925 ], [ 391221.941782472247723, 6948450.765346337109804 ], [ 391124.042850467958488, 6948443.543887271545827 ], [ 391025.907501813140698, 6948441.134799681603909 ], [ 390927.772153158322908, 6948443.543887271545827 ], [ 390829.873221154033672, 6948450.765346337109804 ], [ 390732.446552902401891, 6948462.781779752112925 ], [ 390635.726857780886348, 6948479.564238875173032 ], [ 390539.94714200659655, 6948501.072293292731047 ], [ 390445.338147304195445, 6948527.254128216765821 ], [ 390352.127795028674882, 6948558.046669315546751 ], [ 390260.540637082944158, 6948593.375734658911824 ], [ 390170.797314952593297, 6948633.156213434413075 ], [ 390083.114028161158785, 6948677.292270984500647 ], [ 389997.702013426693156, 6948725.677579681389034 ], [ 389914.767035773955286, 6948778.195575076155365 ], [ 389834.508892828249373, 6948834.719736720435321 ], [ 389757.120933485857677, 6948895.113892955705523 ], [ 389682.78959211910842, 6948959.232548971660435 ], [ 389611.693939440068789, 6949026.921237308532 ], [ 389544.005251103197224, 6949098.016889987513423 ], [ 389479.886595087649766, 6949172.348231354728341 ], [ 389419.492438851855695, 6949249.736190697178245 ], [ 389362.9682772080414, 6949329.994333642534912 ], [ 389310.450281812576577, 6949412.929311295039952 ], [ 389262.064973116444889, 6949498.341326029971242 ], [ 389217.928915566240903, 6949586.024612820707262 ], [ 389178.148436790565029, 6949675.767934950999916 ], [ 389142.81937144708354, 6949767.355092897079885 ], [ 389112.026830348710064, 6949860.565445172600448 ], [ 389085.844995424035005, 6949955.174439875409007 ], [ 389064.336941006651614, 6950050.954155649058521 ], [ 389047.554481883591507, 6950147.673850771039724 ], [ 389035.538048468763009, 6950245.100519022904336 ], [ 389028.316589402791578, 6950342.999451026320457 ], [ 389025.907501813140698, 6950441.134799681603909 ], [ 389028.316589402791578, 6950539.27014833688736 ], [ 389035.538048468763009, 6950637.169080340303481 ], [ 389047.554481883591507, 6950734.595748592168093 ], [ 389064.336941006651614, 6950831.315443714149296 ], [ 389085.844995424035005, 6950927.09515948779881 ], [ 389112.026830348710064, 6951021.704154190607369 ], [ 389142.81937144708354, 6951114.914506466127932 ], [ 389178.148436790565029, 6951206.501664412207901 ], [ 389217.928915566240903, 6951296.244986542500556 ], [ 389262.064973116444889, 6951383.928273333236575 ], [ 389310.450281812576577, 6951469.340288068167865 ], [ 389362.9682772080414, 6951552.275265720672905 ], [ 389419.492438851855695, 6951632.533408666029572 ], [ 389479.886595087649766, 6951709.921368008479476 ], [ 389544.005251103197224, 6951784.252709375694394 ], [ 389611.693939440068789, 6951855.348362054675817 ], [ 389682.78959211910842, 6951923.037050391547382 ], [ 389757.120933485857677, 6951987.155706407502294 ], [ 389834.508892828249373, 6952047.549862642772496 ], [ 389914.767035773955286, 6952104.074024287052453 ], [ 389997.702013426693156, 6952156.592019681818783 ], [ 390083.114028161158785, 6952204.97732837870717 ], [ 390170.797314952593297, 6952249.113385928794742 ], [ 390260.540637082944158, 6952288.893864704295993 ], [ 390352.127795028674882, 6952324.222930047661066 ], [ 390445.338147304195445, 6952355.015471146441996 ], [ 390539.94714200659655, 6952381.19730607047677 ], [ 390635.726857780886348, 6952402.705360488034785 ], [ 390732.446552902401891, 6952419.487819611094892 ], [ 390829.873221154033672, 6952431.504253026098013 ], [ 390927.772153158322908, 6952438.72571209166199 ], [ 391025.907501813140698, 6952441.134799681603909 ], [ 391124.042850467958488, 6952438.72571209166199 ], [ 391221.941782472247723, 6952431.504253026098013 ], [ 391319.368450723879505, 6952419.487819611094892 ], [ 391416.088145845395047, 6952402.705360488034785 ], [ 391511.867861619684845, 6952381.19730607047677 ], [ 391606.476856322085951, 6952355.015471146441996 ], [ 391699.687208597606514, 6952324.222930047661066 ], [ 391791.274366543337237, 6952288.893864704295993 ], [ 391881.017688673688099, 6952249.113385928794742 ], [ 391968.70097546512261, 6952204.97732837870717 ], [ 392054.112990199588239, 6952156.592019681818783 ], [ 392137.04796785232611, 6952104.074024287052453 ], [ 392217.306110798032023, 6952047.549862642772496 ], [ 392294.694070140423719, 6951987.155706407502294 ], [ 392369.025411507172976, 6951923.037050391547382 ], [ 392440.121064186212607, 6951855.348362054675817 ], [ 392507.809752523084171, 6951784.252709375694394 ], [ 392571.928408538631629, 6951709.921368008479476 ], [ 392632.3225647744257, 6951632.533408666029572 ], [ 392688.846726418239996, 6951552.275265720672905 ], [ 392741.364721813704818, 6951469.340288068167865 ], [ 392789.750030509836506, 6951383.928273333236575 ], [ 392833.886088060040493, 6951296.244986542500556 ], [ 392873.666566835716367, 6951206.501664412207901 ], [ 392908.995632179197855, 6951114.914506466127932 ], [ 392939.788173277571332, 6951021.704154190607369 ], [ 392965.97000820224639, 6950927.09515948779881 ], [ 392987.478062619629782, 6950831.315443714149296 ], [ 393004.260521742689889, 6950734.595748592168093 ], [ 393016.276955157518387, 6950637.169080340303481 ], [ 393023.498414223489817, 6950539.27014833688736 ], [ 393025.907501813140698, 6950441.134799681603909 ] ] ] } },
{ "type": "Feature", "properties": { "id_x": 3, "Nom": "Le phare de gatteville", "min_x": -1.3500000238418579, "max_x": 20.110000610351562, "mean_x": 1.9643098474962095, "count_x": 473562, "sum_x": 930222.5, "std_x": 3.857186991770476, "median_x": 0.0, "majority_x": -0.0, "minority_x": -1.3500000238418579, "unique_x": 1642, "range_x": 21.46000063419342, "id_y": 3, "min_y": -1.3500000238418579, "max_y": 20.110000610351562, "mean_y": 1.9643098474962095, "count_y": 473562, "sum_y": 930222.5, "std_y": 3.857186991770476, "median_y": 0.0, "majority_y": -0.0, "minority_y": -1.3500000238418579, "unique_y": 1642, "range_y": 21.46000063419342, "hs_min_x": 6.4510750770568848, "hs_max_x": 7.3855171203613281, "hs_mean_x": 6.9182958602905273, "hs_std_x": 0.46722102165228252, "id": 3, "min": -1.3500000238418579, "max": 20.110000610351562, "mean": 1.9643098474962095, "count": 473562, "sum": 930222.5, "std": 3.857186991770476, "median": 0.0, "majority": -0.0, "minority": -1.3500000238418579, "unique": 1642, "range": 21.46000063419342, "hs_min_y": 6.4510750770568848, "hs_max_y": 7.3855171203613281, "hs_mean_y": 6.9182958602905273, "hs_std_y": 0.46722102165228252, "dir_min": 38.321292877197266, "dir_max": 44.469650268554688, "dir_mean": 41.395469665527344, "dir_std": 3.0741786956793025 }, "geometry": { "type": "Polygon", "coordinates": [ [ [ 393830.566746017197147, 6963430.895698245614767 ], [ 393828.157658427546266, 6963332.760349590331316 ], [ 393820.936199361574836, 6963234.861417586915195 ], [ 393808.919765946746338, 6963137.434749335050583 ], [ 393792.137306823686231, 6963040.715054213069379 ], [ 393770.62925240630284, 6962944.935338439419866 ], [ 393744.447417481627781, 6962850.326343736611307 ], [ 393713.654876383254305, 6962757.115991461090744 ], [ 393678.325811039772816, 6962665.528833515010774 ], [ 393638.545332264096942, 6962575.78551138471812 ], [ 393594.409274713892955, 6962488.1022245939821 ], [ 393546.023966017761268, 6962402.69020985905081 ], [ 393493.505970622296445, 6962319.75523220654577 ], [ 393436.98180897848215, 6962239.497089261189103 ], [ 393376.587652742688078, 6962162.1091299187392 ], [ 393312.46899672714062, 6962087.777788551524282 ], [ 393244.780308390269056, 6962016.682135872542858 ], [ 393173.684655711229425, 6961948.993447535671294 ], [ 393099.353314344480168, 6961884.874791519716382 ], [ 393021.965355002088472, 6961824.48063528444618 ], [ 392941.707212056382559, 6961767.956473640166223 ], [ 392858.772234403644688, 6961715.438478245399892 ], [ 392773.36021966917906, 6961667.053169548511505 ], [ 392685.676932877744548, 6961622.917111998423934 ], [ 392595.933610747393686, 6961583.136633222922683 ], [ 392504.346452801662963, 6961547.80756787955761 ], [ 392411.1361005261424, 6961517.01502678077668 ], [ 392316.527105823741294, 6961490.833191856741905 ], [ 392220.747390049451496, 6961469.325137439183891 ], [ 392124.027694927935954, 6961452.542678316123784 ], [ 392026.601026676304173, 6961440.526244901120663 ], [ 391928.702094672014937, 6961433.304785835556686 ], [ 391830.566746017197147, 6961430.895698245614767 ], [ 391732.431397362379357, 6961433.304785835556686 ], [ 391634.532465358090121, 6961440.526244901120663 ], [ 391537.10579710645834, 6961452.542678316123784 ], [ 391440.386101984942798, 6961469.325137439183891 ], [ 391344.606386210653, 6961490.833191856741905 ], [ 391249.997391508251894, 6961517.01502678077668 ], [ 391156.787039232731331, 6961547.80756787955761 ], [ 391065.199881287000608, 6961583.136633222922683 ], [ 390975.456559156649746, 6961622.917111998423934 ], [ 390887.773272365215234, 6961667.053169548511505 ], [ 390802.361257630749606, 6961715.438478245399892 ], [ 390719.426279978011735, 6961767.956473640166223 ], [ 390639.168137032305822, 6961824.48063528444618 ], [ 390561.780177689914126, 6961884.874791519716382 ], [ 390487.448836323164869, 6961948.993447535671294 ], [ 390416.353183644125238, 6962016.682135872542858 ], [ 390348.664495307253674, 6962087.777788551524282 ], [ 390284.545839291706216, 6962162.1091299187392 ], [ 390224.151683055912144, 6962239.497089261189103 ], [ 390167.627521412097849, 6962319.75523220654577 ], [ 390115.109526016633026, 6962402.69020985905081 ], [ 390066.724217320501339, 6962488.1022245939821 ], [ 390022.588159770297352, 6962575.78551138471812 ], [ 389982.807680994621478, 6962665.528833515010774 ], [ 389947.478615651139989, 6962757.115991461090744 ], [ 389916.686074552766513, 6962850.326343736611307 ], [ 389890.504239628091455, 6962944.935338439419866 ], [ 389868.996185210708063, 6963040.715054213069379 ], [ 389852.213726087647956, 6963137.434749335050583 ], [ 389840.197292672819458, 6963234.861417586915195 ], [ 389832.975833606848028, 6963332.760349590331316 ], [ 389830.566746017197147, 6963430.895698245614767 ], [ 389832.975833606848028, 6963529.031046900898218 ], [ 389840.197292672819458, 6963626.929978904314339 ], [ 389852.213726087647956, 6963724.356647156178951 ], [ 389868.996185210708063, 6963821.076342278160155 ], [ 389890.504239628091455, 6963916.856058051809669 ], [ 389916.686074552766513, 6964011.465052754618227 ], [ 389947.478615651139989, 6964104.675405030138791 ], [ 389982.807680994621478, 6964196.26256297621876 ], [ 390022.588159770297352, 6964286.005885106511414 ], [ 390066.724217320501339, 6964373.689171897247434 ], [ 390115.109526016633026, 6964459.101186632178724 ], [ 390167.627521412097849, 6964542.036164284683764 ], [ 390224.151683055912144, 6964622.294307230040431 ], [ 390284.545839291706216, 6964699.682266572490335 ], [ 390348.664495307253674, 6964774.013607939705253 ], [ 390416.353183644125238, 6964845.109260618686676 ], [ 390487.448836323164869, 6964912.79794895555824 ], [ 390561.780177689914126, 6964976.916604971513152 ], [ 390639.168137032305822, 6965037.310761206783354 ], [ 390719.426279978011735, 6965093.834922851063311 ], [ 390802.361257630749606, 6965146.352918245829642 ], [ 390887.773272365215234, 6965194.738226942718029 ], [ 390975.456559156649746, 6965238.8742844928056 ], [ 391065.199881287000608, 6965278.654763268306851 ], [ 391156.787039232731331, 6965313.983828611671925 ], [ 391249.997391508251894, 6965344.776369710452855 ], [ 391344.606386210653, 6965370.958204634487629 ], [ 391440.386101984942798, 6965392.466259052045643 ], [ 391537.10579710645834, 6965409.248718175105751 ], [ 391634.532465358090121, 6965421.265151590108871 ], [ 391732.431397362379357, 6965428.486610655672848 ], [ 391830.566746017197147, 6965430.895698245614767 ], [ 391928.702094672014937, 6965428.486610655672848 ], [ 392026.601026676304173, 6965421.265151590108871 ], [ 392124.027694927935954, 6965409.248718175105751 ], [ 392220.747390049451496, 6965392.466259052045643 ], [ 392316.527105823741294, 6965370.958204634487629 ], [ 392411.1361005261424, 6965344.776369710452855 ], [ 392504.346452801662963, 6965313.983828611671925 ], [ 392595.933610747393686, 6965278.654763268306851 ], [ 392685.676932877744548, 6965238.8742844928056 ], [ 392773.36021966917906, 6965194.738226942718029 ], [ 392858.772234403644688, 6965146.352918245829642 ], [ 392941.707212056382559, 6965093.834922851063311 ], [ 393021.965355002088472, 6965037.310761206783354 ], [ 393099.353314344480168, 6964976.916604971513152 ], [ 393173.684655711229425, 6964912.79794895555824 ], [ 393244.780308390269056, 6964845.109260618686676 ], [ 393312.46899672714062, 6964774.013607939705253 ], [ 393376.587652742688078, 6964699.682266572490335 ], [ 393436.98180897848215, 6964622.294307230040431 ], [ 393493.505970622296445, 6964542.036164284683764 ], [ 393546.023966017761268, 6964459.101186632178724 ], [ 393594.409274713892955, 6964373.689171897247434 ], [ 393638.545332264096942, 6964286.005885106511414 ], [ 393678.325811039772816, 6964196.26256297621876 ], [ 393713.654876383254305, 6964104.675405030138791 ], [ 393744.447417481627781, 6964011.465052754618227 ], [ 393770.62925240630284, 6963916.856058051809669 ], [ 393792.137306823686231, 6963821.076342278160155 ], [ 393808.919765946746338, 6963724.356647156178951 ], [ 393820.936199361574836, 6963626.929978904314339 ], [ 393828.157658427546266, 6963529.031046900898218 ], [ 393830.566746017197147, 6963430.895698245614767 ] ] ] } },
{ "type": "Feature", "properties": { "id_x": 1, "Nom": "L'anse de brick", "min_x": -1.4900000095367432, "max_x": 139.99000549316406, "mean_x": 48.31595308746644, "count_x": 502467, "sum_x": 24277172.0, "std_x": 49.503368806904092, "median_x": 35.409999847412109, "majority_x": -0.0, "minority_x": -1.4900000095367432, "unique_x": 9818, "range_x": 141.48000550270081, "id_y": 1, "min_y": -1.4900000095367432, "max_y": 139.99000549316406, "mean_y": 48.31595308746644, "count_y": 502467, "sum_y": 24277172.0, "std_y": 49.503368806904092, "median_y": 35.409999847412109, "majority_y": -0.0, "minority_y": -1.4900000095367432, "unique_y": 9818, "range_y": 141.48000550270081, "hs_min_x": 5.4459872245788574, "hs_max_x": 5.4459872245788574, "hs_mean_x": 5.4459872245788574, "hs_std_x": 0.0, "id": 1, "min": -1.4900000095367432, "max": 139.99000549316406, "mean": 48.31595308746644, "count": 502467, "sum": 24277172.0, "std": 49.503368806904092, "median": 35.409999847412109, "majority": -0.0, "minority": -1.4900000095367432, "unique": 9818, "range": 141.48000550270081, "hs_min_y": 5.4459872245788574, "hs_max_y": 5.4459872245788574, "hs_mean_y": 5.4459872245788574, "hs_std_y": 0.0, "dir_min": 194.89765930175781, "dir_max": 194.89765930175781, "dir_mean": 194.89765930175781, "dir_std": 0.0 }, "geometry": { "type": "Polygon", "coordinates": [ [ [ 378223.734817032585852, 6961697.460582164116204 ], [ 378221.325729442934971, 6961599.325233508832753 ], [ 378214.104270376963541, 6961501.426301505416632 ], [ 378202.087836962135043, 6961403.99963325355202 ], [ 378185.305377839074936, 6961307.279938131570816 ], [ 378163.797323421691544, 6961211.500222357921302 ], [ 378137.615488497016486, 6961116.891227655112743 ], [ 378106.822947398643009, 6961023.68087537959218 ], [ 378071.493882055161521, 6960932.093717433512211 ], [ 378031.713403279485647, 6960842.350395303219557 ], [ 377987.57734572928166, 6960754.667108512483537 ], [ 377939.192037033149973, 6960669.255093777552247 ], [ 377886.67404163768515, 6960586.320116125047207 ], [ 377830.149879993870854, 6960506.06197317969054 ], [ 377769.755723758076783, 6960428.674013837240636 ], [ 377705.637067742529325, 6960354.342672470025718 ], [ 377637.948379405657761, 6960283.247019791044295 ], [ 377566.85272672661813, 6960215.55833145417273 ], [ 377492.521385359868873, 6960151.439675438217819 ], [ 377415.133426017477177, 6960091.045519202947617 ], [ 377334.875283071771264, 6960034.52135755866766 ], [ 377251.940305419033393, 6959982.003362163901329 ], [ 377166.528290684567764, 6959933.618053467012942 ], [ 377078.845003893133253, 6959889.481995916925371 ], [ 376989.101681762782391, 6959849.701517141424119 ], [ 376897.514523817051668, 6959814.372451798059046 ], [ 376804.304171541531105, 6959783.579910699278116 ], [ 376709.695176839129999, 6959757.398075775243342 ], [ 376613.915461064840201, 6959735.890021357685328 ], [ 376517.195765943324659, 6959719.10756223462522 ], [ 376419.769097691692878, 6959707.091128819622099 ], [ 376321.870165687403642, 6959699.869669754058123 ], [ 376223.734817032585852, 6959697.460582164116204 ], [ 376125.599468377768062, 6959699.869669754058123 ], [ 376027.700536373478826, 6959707.091128819622099 ], [ 375930.273868121847045, 6959719.10756223462522 ], [ 375833.554173000331502, 6959735.890021357685328 ], [ 375737.774457226041704, 6959757.398075775243342 ], [ 375643.165462523640599, 6959783.579910699278116 ], [ 375549.955110248120036, 6959814.372451798059046 ], [ 375458.367952302389313, 6959849.701517141424119 ], [ 375368.624630172038451, 6959889.481995916925371 ], [ 375280.941343380603939, 6959933.618053467012942 ], [ 375195.52932864613831, 6959982.003362163901329 ], [ 375112.59435099340044, 6960034.52135755866766 ], [ 375032.336208047694527, 6960091.045519202947617 ], [ 374954.948248705302831, 6960151.439675438217819 ], [ 374880.616907338553574, 6960215.55833145417273 ], [ 374809.521254659513943, 6960283.247019791044295 ], [ 374741.832566322642379, 6960354.342672470025718 ], [ 374677.71391030709492, 6960428.674013837240636 ], [ 374617.319754071300849, 6960506.06197317969054 ], [ 374560.795592427486554, 6960586.320116125047207 ], [ 374508.277597032021731, 6960669.255093777552247 ], [ 374459.892288335890044, 6960754.667108512483537 ], [ 374415.756230785686057, 6960842.350395303219557 ], [ 374375.975752010010183, 6960932.093717433512211 ], [ 374340.646686666528694, 6961023.68087537959218 ], [ 374309.854145568155218, 6961116.891227655112743 ], [ 374283.672310643480159, 6961211.500222357921302 ], [ 374262.164256226096768, 6961307.279938131570816 ], [ 374245.381797103036661, 6961403.99963325355202 ], [ 374233.365363688208163, 6961501.426301505416632 ], [ 374226.143904622236732, 6961599.325233508832753 ], [ 374223.734817032585852, 6961697.460582164116204 ], [ 374226.143904622236732, 6961795.595930819399655 ], [ 374233.365363688208163, 6961893.494862822815776 ], [ 374245.381797103036661, 6961990.921531074680388 ], [ 374262.164256226096768, 6962087.641226196661592 ], [ 374283.672310643480159, 6962183.420941970311105 ], [ 374309.854145568155218, 6962278.029936673119664 ], [ 374340.646686666528694, 6962371.240288948640227 ], [ 374375.975752010010183, 6962462.827446894720197 ], [ 374415.756230785686057, 6962552.570769025012851 ], [ 374459.892288335890044, 6962640.25405581574887 ], [ 374508.277597032021731, 6962725.666070550680161 ], [ 374560.795592427486554, 6962808.601048203185201 ], [ 374617.319754071300849, 6962888.859191148541868 ], [ 374677.71391030709492, 6962966.247150490991771 ], [ 374741.832566322642379, 6963040.578491858206689 ], [ 374809.521254659513943, 6963111.674144537188113 ], [ 374880.616907338553574, 6963179.362832874059677 ], [ 374954.948248705302831, 6963243.481488890014589 ], [ 375032.336208047694527, 6963303.875645125284791 ], [ 375112.59435099340044, 6963360.399806769564748 ], [ 375195.52932864613831, 6963412.917802164331079 ], [ 375280.941343380603939, 6963461.303110861219466 ], [ 375368.624630172038451, 6963505.439168411307037 ], [ 375458.367952302389313, 6963545.219647186808288 ], [ 375549.955110248120036, 6963580.548712530173361 ], [ 375643.165462523640599, 6963611.341253628954291 ], [ 375737.774457226041704, 6963637.523088552989066 ], [ 375833.554173000331502, 6963659.03114297054708 ], [ 375930.273868121847045, 6963675.813602093607187 ], [ 376027.700536373478826, 6963687.830035508610308 ], [ 376125.599468377768062, 6963695.051494574174285 ], [ 376223.734817032585852, 6963697.460582164116204 ], [ 376321.870165687403642, 6963695.051494574174285 ], [ 376419.769097691692878, 6963687.830035508610308 ], [ 376517.195765943324659, 6963675.813602093607187 ], [ 376613.915461064840201, 6963659.03114297054708 ], [ 376709.695176839129999, 6963637.523088552989066 ], [ 376804.304171541531105, 6963611.341253628954291 ], [ 376897.514523817051668, 6963580.548712530173361 ], [ 376989.101681762782391, 6963545.219647186808288 ], [ 377078.845003893133253, 6963505.439168411307037 ], [ 377166.528290684567764, 6963461.303110861219466 ], [ 377251.940305419033393, 6963412.917802164331079 ], [ 377334.875283071771264, 6963360.399806769564748 ], [ 377415.133426017477177, 6963303.875645125284791 ], [ 377492.521385359868873, 6963243.481488890014589 ], [ 377566.85272672661813, 6963179.362832874059677 ], [ 377637.948379405657761, 6963111.674144537188113 ], [ 377705.637067742529325, 6963040.578491858206689 ], [ 377769.755723758076783, 6962966.247150490991771 ], [ 377830.149879993870854, 6962888.859191148541868 ], [ 377886.67404163768515, 6962808.601048203185201 ], [ 377939.192037033149973, 6962725.666070550680161 ], [ 377987.57734572928166, 6962640.25405581574887 ], [ 378031.713403279485647, 6962552.570769025012851 ], [ 378071.493882055161521, 6962462.827446894720197 ], [ 378106.822947398643009, 6962371.240288948640227 ], [ 378137.615488497016486, 6962278.029936673119664 ], [ 378163.797323421691544, 6962183.420941970311105 ], [ 378185.305377839074936, 6962087.641226196661592 ], [ 378202.087836962135043, 6961990.921531074680388 ], [ 378214.104270376963541, 6961893.494862822815776 ], [ 378221.325729442934971, 6961795.595930819399655 ], [ 378223.734817032585852, 6961697.460582164116204 ] ] ] } },
{ "type": "Feature", "properties": { "id_x": 2, "Nom": "L'anse de la mondrée", "min_x": -1.6299999952316284, "max_x": 81.900001525878906, "mean_x": 21.160866320526765, "count_x": 439514, "sum_x": 9300497.0, "std_x": 21.55712282955615, "median_x": 15.340000152587891, "majority_x": -0.0, "minority_x": -1.6299999952316284, "unique_x": 5991, "range_x": 83.530001521110535, "id_y": 2, "min_y": -1.6299999952316284, "max_y": 81.900001525878906, "mean_y": 21.160866320526765, "count_y": 439514, "sum_y": 9300497.0, "std_y": 21.55712282955615, "median_y": 15.340000152587891, "majority_y": -0.0, "minority_y": -1.6299999952316284, "unique_y": 5991, "range_y": 83.530001521110535, "hs_min_x": 5.4087800979614258, "hs_max_x": 5.4087800979614258, "hs_mean_x": 5.4087800979614258, "hs_std_x": 0.0, "id": 2, "min": -1.6299999952316284, "max": 81.900001525878906, "mean": 21.160866320526765, "count": 439514, "sum": 9300497.0, "std": 21.55712282955615, "median": 15.340000152587891, "majority": -0.0, "minority": -1.6299999952316284, "unique": 5991, "range": 83.530001521110535, "hs_min_y": 5.4087800979614258, "hs_max_y": 5.4087800979614258, "hs_mean_y": 5.4087800979614258, "hs_std_y": 0.0, "dir_min": 21.407436370849609, "dir_max": 21.407436370849609, "dir_mean": 21.407436370849609, "dir_std": 0.0 }, "geometry": { "type": "Polygon", "coordinates": [ [ [ 380686.426633374416269, 6963744.760088103823364 ], [ 380684.017545784765389, 6963646.624739448539913 ], [ 380676.796086718793958, 6963548.725807445123792 ], [ 380664.779653303965461, 6963451.29913919325918 ], [ 380647.997194180905353, 6963354.579444071277976 ], [ 380626.489139763521962, 6963258.799728297628462 ], [ 380600.307304838846903, 6963164.190733594819903 ], [ 380569.514763740473427, 6963070.98038131929934 ], [ 380534.185698396991938, 6962979.393223373219371 ], [ 380494.405219621316064, 6962889.649901242926717 ], [ 380450.269162071112078, 6962801.966614452190697 ], [ 380401.88385337498039, 6962716.554599717259407 ], [ 380349.365857979515567, 6962633.619622064754367 ], [ 380292.841696335701272, 6962553.3614791193977 ], [ 380232.447540099907201, 6962475.973519776947796 ], [ 380168.328884084359743, 6962401.642178409732878 ], [ 380100.640195747488178, 6962330.546525730751455 ], [ 380029.544543068448547, 6962262.85783739387989 ], [ 379955.21320170169929, 6962198.739181377924979 ], [ 379877.825242359307595, 6962138.345025142654777 ], [ 379797.567099413601682, 6962081.82086349837482 ], [ 379714.632121760863811, 6962029.302868103608489 ], [ 379629.220107026398182, 6961980.917559406720102 ], [ 379541.53682023496367, 6961936.781501856632531 ], [ 379451.793498104612809, 6961897.001023081131279 ], [ 379360.206340158882085, 6961861.671957737766206 ], [ 379266.995987883361522, 6961830.879416638985276 ], [ 379172.386993180960417, 6961804.697581714950502 ], [ 379076.607277406670619, 6961783.189527297392488 ], [ 378979.887582285155077, 6961766.40706817433238 ], [ 378882.460914033523295, 6961754.390634759329259 ], [ 378784.561982029234059, 6961747.169175693765283 ], [ 378686.426633374416269, 6961744.760088103823364 ], [ 378588.29128471959848, 6961747.169175693765283 ], [ 378490.392352715309244, 6961754.390634759329259 ], [ 378392.965684463677462, 6961766.40706817433238 ], [ 378296.24598934216192, 6961783.189527297392488 ], [ 378200.466273567872122, 6961804.697581714950502 ], [ 378105.857278865471017, 6961830.879416638985276 ], [ 378012.646926589950453, 6961861.671957737766206 ], [ 377921.05976864421973, 6961897.001023081131279 ], [ 377831.316446513868868, 6961936.781501856632531 ], [ 377743.633159722434357, 6961980.917559406720102 ], [ 377658.221144987968728, 6962029.302868103608489 ], [ 377575.286167335230857, 6962081.82086349837482 ], [ 377495.028024389524944, 6962138.345025142654777 ], [ 377417.640065047133248, 6962198.739181377924979 ], [ 377343.308723680383991, 6962262.85783739387989 ], [ 377272.21307100134436, 6962330.546525730751455 ], [ 377204.524382664472796, 6962401.642178409732878 ], [ 377140.405726648925338, 6962475.973519776947796 ], [ 377080.011570413131267, 6962553.3614791193977 ], [ 377023.487408769316971, 6962633.619622064754367 ], [ 376970.969413373852149, 6962716.554599717259407 ], [ 376922.584104677720461, 6962801.966614452190697 ], [ 376878.448047127516475, 6962889.649901242926717 ], [ 376838.6675683518406, 6962979.393223373219371 ], [ 376803.338503008359112, 6963070.98038131929934 ], [ 376772.545961909985635, 6963164.190733594819903 ], [ 376746.364126985310577, 6963258.799728297628462 ], [ 376724.856072567927185, 6963354.579444071277976 ], [ 376708.073613444867078, 6963451.29913919325918 ], [ 376696.05718003003858, 6963548.725807445123792 ], [ 376688.83572096406715, 6963646.624739448539913 ], [ 376686.426633374416269, 6963744.760088103823364 ], [ 376688.83572096406715, 6963842.895436759106815 ], [ 376696.05718003003858, 6963940.794368762522936 ], [ 376708.073613444867078, 6964038.221037014387548 ], [ 376724.856072567927185, 6964134.940732136368752 ], [ 376746.364126985310577, 6964230.720447910018265 ], [ 376772.545961909985635, 6964325.329442612826824 ], [ 376803.338503008359112, 6964418.539794888347387 ], [ 376838.6675683518406, 6964510.126952834427357 ], [ 376878.448047127516475, 6964599.870274964720011 ], [ 376922.584104677720461, 6964687.55356175545603 ], [ 376970.969413373852149, 6964772.965576490387321 ], [ 377023.487408769316971, 6964855.900554142892361 ], [ 377080.011570413131267, 6964936.158697088249028 ], [ 377140.405726648925338, 6965013.546656430698931 ], [ 377204.524382664472796, 6965087.877997797913849 ], [ 377272.21307100134436, 6965158.973650476895273 ], [ 377343.308723680383991, 6965226.662338813766837 ], [ 377417.640065047133248, 6965290.780994829721749 ], [ 377495.028024389524944, 6965351.175151064991951 ], [ 377575.286167335230857, 6965407.699312709271908 ], [ 377658.221144987968728, 6965460.217308104038239 ], [ 377743.633159722434357, 6965508.602616800926626 ], [ 377831.316446513868868, 6965552.738674351014197 ], [ 377921.05976864421973, 6965592.519153126515448 ], [ 378012.646926589950453, 6965627.848218469880521 ], [ 378105.857278865471017, 6965658.640759568661451 ], [ 378200.466273567872122, 6965684.822594492696226 ], [ 378296.24598934216192, 6965706.33064891025424 ], [ 378392.965684463677462, 6965723.113108033314347 ], [ 378490.392352715309244, 6965735.129541448317468 ], [ 378588.29128471959848, 6965742.351000513881445 ], [ 378686.426633374416269, 6965744.760088103823364 ], [ 378784.561982029234059, 6965742.351000513881445 ], [ 378882.460914033523295, 6965735.129541448317468 ], [ 378979.887582285155077, 6965723.113108033314347 ], [ 379076.607277406670619, 6965706.33064891025424 ], [ 379172.386993180960417, 6965684.822594492696226 ], [ 379266.995987883361522, 6965658.640759568661451 ], [ 379360.206340158882085, 6965627.848218469880521 ], [ 379451.793498104612809, 6965592.519153126515448 ], [ 379541.53682023496367, 6965552.738674351014197 ], [ 379629.220107026398182, 6965508.602616800926626 ], [ 379714.632121760863811, 6965460.217308104038239 ], [ 379797.567099413601682, 6965407.699312709271908 ], [ 379877.825242359307595, 6965351.175151064991951 ], [ 379955.21320170169929, 6965290.780994829721749 ], [ 380029.544543068448547, 6965226.662338813766837 ], [ 380100.640195747488178, 6965158.973650476895273 ], [ 380168.328884084359743, 6965087.877997797913849 ], [ 380232.447540099907201, 6965013.546656430698931 ], [ 380292.841696335701272, 6964936.158697088249028 ], [ 380349.365857979515567, 6964855.900554142892361 ], [ 380401.88385337498039, 6964772.965576490387321 ], [ 380450.269162071112078, 6964687.55356175545603 ], [ 380494.405219621316064, 6964599.870274964720011 ], [ 380534.185698396991938, 6964510.126952834427357 ], [ 380569.514763740473427, 6964418.539794888347387 ], [ 380600.307304838846903, 6964325.329442612826824 ], [ 380626.489139763521962, 6964230.720447910018265 ], [ 380647.997194180905353, 6964134.940732136368752 ], [ 380664.779653303965461, 6964038.221037014387548 ], [ 380676.796086718793958, 6963940.794368762522936 ], [ 380684.017545784765389, 6963842.895436759106815 ], [ 380686.426633374416269, 6963744.760088103823364 ] ] ] } }
]
}
