{
"type": "FeatureCollection",
"name": "Point_fusionne_buffer20m",
"crs": { "type": "name", "properties": { "name": "urn:ogc:def:crs:EPSG::2154" } },
"features": [
{ "type": "Feature", "properties": { "id": 2, "Nom": "Nez de jobourg" }, "geometry": { "type": "Polygon", "coordinates": [ [ [ 343601.890055926924106, 6963729.145977078936994 ], [ 343601.709374357713386, 6963721.785825929604471 ], [ 343601.167764927726239, 6963714.443406029604375 ], [ 343600.266532421635929, 6963707.136405910365283 ], [ 343599.007847987406421, 6963699.882428776472807 ], [ 343597.394743906101212, 6963692.698950093239546 ], [ 343595.431106286763679, 6963685.603275490924716 ], [ 343593.121665704355109, 6963678.612499070353806 ], [ 343590.471985803626012, 6963671.743462224490941 ], [ 343587.488449895463418, 6963665.012713064439595 ], [ 343584.178245579183567, 6963658.43646655511111 ], [ 343580.549347426975146, 6963652.03056544996798 ], [ 343576.61049777228618, 6963645.810442126356065 ], [ 343572.37118564901175, 6963639.791081405244768 ], [ 343567.841623931308277, 6963633.986984454095364 ], [ 343563.032724730146583, 6963628.412133852019906 ], [ 343557.956073104927782, 6963623.079959901049733 ], [ 343552.623899153957609, 6963618.003308275714517 ], [ 343547.049048551474698, 6963613.194409074261785 ], [ 343541.244951600790955, 6963608.664847357198596 ], [ 343535.225590879854281, 6963604.425535233691335 ], [ 343529.005467555893119, 6963600.486685578711331 ], [ 343522.599566450808197, 6963596.857787426561117 ], [ 343516.023319941479713, 6963593.547583110630512 ], [ 343509.292570781661198, 6963590.564047202467918 ], [ 343502.423533935740124, 6963587.914367301389575 ], [ 343495.432757515111007, 6963585.604926719330251 ], [ 343488.337082912388723, 6963583.641289100050926 ], [ 343481.153604229330085, 6963582.028185018338263 ], [ 343473.899627095204778, 6963580.769500584341586 ], [ 343466.59262697637314, 6963579.868268078193069 ], [ 343459.250207076023798, 6963579.326658648438752 ], [ 343451.890055926924106, 6963579.145977078936994 ], [ 343444.529904777824413, 6963579.326658648438752 ], [ 343437.187484877475072, 6963579.868268078193069 ], [ 343429.880484758643433, 6963580.769500584341586 ], [ 343422.626507624518126, 6963582.028185018338263 ], [ 343415.443028941459488, 6963583.641289100050926 ], [ 343408.347354338737205, 6963585.604926719330251 ], [ 343401.356577918108087, 6963587.914367301389575 ], [ 343394.487541072187014, 6963590.564047202467918 ], [ 343387.756791912368499, 6963593.547583110630512 ], [ 343381.180545403040014, 6963596.857787426561117 ], [ 343374.774644297955092, 6963600.486685578711331 ], [ 343368.554520973993931, 6963604.425535233691335 ], [ 343362.535160253057256, 6963608.664847357198596 ], [ 343356.731063302373514, 6963613.194409074261785 ], [ 343351.156212699890602, 6963618.003308275714517 ], [ 343345.824038748920429, 6963623.079959901049733 ], [ 343340.747387123701628, 6963628.412133852019906 ], [ 343335.938487922539935, 6963633.986984454095364 ], [ 343331.408926204836462, 6963639.791081405244768 ], [ 343327.169614081562031, 6963645.810442126356065 ], [ 343323.230764426873066, 6963652.03056544996798 ], [ 343319.601866274664644, 6963658.43646655511111 ], [ 343316.291661958384793, 6963665.012713064439595 ], [ 343313.308126050222199, 6963671.743462224490941 ], [ 343310.658446149493102, 6963678.612499070353806 ], [ 343308.349005567084532, 6963685.603275490924716 ], [ 343306.385367947747, 6963692.698950093239546 ], [ 343304.77226386644179, 6963699.882428776472807 ], [ 343303.513579432212282, 6963707.136405910365283 ], [ 343302.612346926121973, 6963714.443406029604375 ], [ 343302.070737496134825, 6963721.785825929604471 ], [ 343301.890055926924106, 6963729.145977078936994 ], [ 343302.070737496134825, 6963736.506128228269517 ], [ 343302.612346926121973, 6963743.848548128269613 ], [ 343303.513579432212282, 6963751.155548247508705 ], [ 343304.77226386644179, 6963758.409525381401181 ], [ 343306.385367947747, 6963765.593004064634442 ], [ 343308.349005567084532, 6963772.688678666949272 ], [ 343310.658446149493102, 6963779.679455087520182 ], [ 343313.308126050222199, 6963786.548491933383048 ], [ 343316.291661958384793, 6963793.279241093434393 ], [ 343319.601866274664644, 6963799.855487602762878 ], [ 343323.230764426873066, 6963806.261388707906008 ], [ 343327.169614081562031, 6963812.481512031517923 ], [ 343331.408926204836462, 6963818.50087275262922 ], [ 343335.938487922539935, 6963824.304969703778625 ], [ 343340.747387123701628, 6963829.879820305854082 ], [ 343345.824038748920429, 6963835.211994256824255 ], [ 343351.156212699890602, 6963840.288645882159472 ], [ 343356.731063302373514, 6963845.097545083612204 ], [ 343362.535160253057256, 6963849.627106800675392 ], [ 343368.554520973993931, 6963853.866418924182653 ], [ 343374.774644297955092, 6963857.805268579162657 ], [ 343381.180545403040014, 6963861.434166731312871 ], [ 343387.756791912368499, 6963864.744371047243476 ], [ 343394.487541072187014, 6963867.72790695540607 ], [ 343401.356577918108087, 6963870.377586856484413 ], [ 343408.347354338737205, 6963872.687027438543737 ], [ 343415.443028941459488, 6963874.650665057823062 ], [ 343422.626507624518126, 6963876.263769139535725 ], [ 343429.880484758643433, 6963877.522453573532403 ], [ 343437.187484877475072, 6963878.42368607968092 ], [ 343444.529904777824413, 6963878.965295509435236 ], [ 343451.890055926924106, 6963879.145977078936994 ], [ 343459.250207076023798, 6963878.965295509435236 ], [ 343466.59262697637314, 6963878.42368607968092 ], [ 343473.899627095204778, 6963877.522453573532403 ], [ 343481.153604229330085, 6963876.263769139535725 ], [ 343488.337082912388723, 6963874.650665057823062 ], [ 343495.432757515111007, 6963872.687027438543737 ], [ 343502.423533935740124, 6963870.377586856484413 ], [ 343509.292570781661198, 6963867.72790695540607 ], [ 343516.023319941479713, 6963864.744371047243476 ], [ 343522.599566450808197, 6963861.434166731312871 ], [ 343529.005467555893119, 6963857.805268579162657 ], [ 343535.225590879854281, 6963853.866418924182653 ], [ 343541.244951600790955, 6963849.627106800675392 ], [ 343547.049048551474698, 6963845.097545083612204 ], [ 343552.623899153957609, 6963840.288645882159472 ], [ 343557.956073104927782, 6963835.211994256824255 ], [ 343563.032724730146583, 6963829.879820305854082 ], [ 343567.841623931308277, 6963824.304969703778625 ], [ 343572.37118564901175, 6963818.50087275262922 ], [ 343576.61049777228618, 6963812.481512031517923 ], [ 343580.549347426975146, 6963806.261388707906008 ], [ 343584.178245579183567, 6963799.855487602762878 ], [ 343587.488449895463418, 6963793.279241093434393 ], [ 343590.471985803626012, 6963786.548491933383048 ], [ 343593.121665704355109, 6963779.679455087520182 ], [ 343595.431106286763679, 6963772.688678666949272 ], [ 343597.394743906101212, 6963765.593004064634442 ], [ 343599.007847987406421, 6963758.409525381401181 ], [ 343600.266532421635929, 6963751.155548247508705 ], [ 343601.167764927726239, 6963743.848548128269613 ], [ 343601.709374357713386, 6963736.506128228269517 ], [ 343601.890055926924106, 6963729.145977078936994 ] ] ] } },
{ "type": "Feature", "properties": { "id": 5, "Nom": "Port racine" }, "geometry": { "type": "Polygon", "coordinates": [ [ [ 346977.781811688968446, 6967974.89894060138613 ], [ 346977.601130119757727, 6967967.538789452053607 ], [ 346977.059520689770579, 6967960.196369552053511 ], [ 346976.15828818368027, 6967952.889369432814419 ], [ 346974.899603749450762, 6967945.635392298921943 ], [ 346973.286499668145552, 6967938.451913615688682 ], [ 346971.32286204880802, 6967931.356239013373852 ], [ 346969.01342146639945, 6967924.365462592802942 ], [ 346966.363741565670352, 6967917.496425746940076 ], [ 346963.380205657507759, 6967910.765676586888731 ], [ 346960.070001341227908, 6967904.189430077560246 ], [ 346956.441103189019486, 6967897.783528972417116 ], [ 346952.502253534330521, 6967891.563405648805201 ], [ 346948.26294141105609, 6967885.544044927693903 ], [ 346943.733379693352617, 6967879.739947976544499 ], [ 346938.924480492190924, 6967874.165097374469042 ], [ 346933.847828866972122, 6967868.832923423498869 ], [ 346928.515654916001949, 6967863.756271798163652 ], [ 346922.940804313519038, 6967858.94737259671092 ], [ 346917.136707362835295, 6967854.417810879647732 ], [ 346911.117346641898621, 6967850.178498756140471 ], [ 346904.89722331793746, 6967846.239649101160467 ], [ 346898.491322212852538, 6967842.610750949010253 ], [ 346891.915075703524053, 6967839.300546633079648 ], [ 346885.184326543705538, 6967836.317010724917054 ], [ 346878.315289697784465, 6967833.667330823838711 ], [ 346871.324513277155347, 6967831.357890241779387 ], [ 346864.228838674433064, 6967829.394252622500062 ], [ 346857.045359991374426, 6967827.781148540787399 ], [ 346849.791382857249118, 6967826.522464106790721 ], [ 346842.48438273841748, 6967825.621231600642204 ], [ 346835.141962838068139, 6967825.079622170887887 ], [ 346827.781811688968446, 6967824.89894060138613 ], [ 346820.421660539868753, 6967825.079622170887887 ], [ 346813.079240639519412, 6967825.621231600642204 ], [ 346805.772240520687774, 6967826.522464106790721 ], [ 346798.518263386562467, 6967827.781148540787399 ], [ 346791.334784703503828, 6967829.394252622500062 ], [ 346784.239110100781545, 6967831.357890241779387 ], [ 346777.248333680152427, 6967833.667330823838711 ], [ 346770.379296834231354, 6967836.317010724917054 ], [ 346763.648547674412839, 6967839.300546633079648 ], [ 346757.072301165084355, 6967842.610750949010253 ], [ 346750.666400059999432, 6967846.239649101160467 ], [ 346744.446276736038271, 6967850.178498756140471 ], [ 346738.426916015101597, 6967854.417810879647732 ], [ 346732.622819064417854, 6967858.94737259671092 ], [ 346727.047968461934943, 6967863.756271798163652 ], [ 346721.71579451096477, 6967868.832923423498869 ], [ 346716.639142885745969, 6967874.165097374469042 ], [ 346711.830243684584275, 6967879.739947976544499 ], [ 346707.300681966880802, 6967885.544044927693903 ], [ 346703.061369843606371, 6967891.563405648805201 ], [ 346699.122520188917406, 6967897.783528972417116 ], [ 346695.493622036708985, 6967904.189430077560246 ], [ 346692.183417720429134, 6967910.765676586888731 ], [ 346689.19988181226654, 6967917.496425746940076 ], [ 346686.550201911537442, 6967924.365462592802942 ], [ 346684.240761329128873, 6967931.356239013373852 ], [ 346682.27712370979134, 6967938.451913615688682 ], [ 346680.66401962848613, 6967945.635392298921943 ], [ 346679.405335194256622, 6967952.889369432814419 ], [ 346678.504102688166313, 6967960.196369552053511 ], [ 346677.962493258179165, 6967967.538789452053607 ], [ 346677.781811688968446, 6967974.89894060138613 ], [ 346677.962493258179165, 6967982.259091750718653 ], [ 346678.504102688166313, 6967989.601511650718749 ], [ 346679.405335194256622, 6967996.90851176995784 ], [ 346680.66401962848613, 6968004.162488903850317 ], [ 346682.27712370979134, 6968011.345967587083578 ], [ 346684.240761329128873, 6968018.441642189398408 ], [ 346686.550201911537442, 6968025.432418609969318 ], [ 346689.19988181226654, 6968032.301455455832183 ], [ 346692.183417720429134, 6968039.032204615883529 ], [ 346695.493622036708985, 6968045.608451125212014 ], [ 346699.122520188917406, 6968052.014352230355144 ], [ 346703.061369843606371, 6968058.234475553967059 ], [ 346707.300681966880802, 6968064.253836275078356 ], [ 346711.830243684584275, 6968070.05793322622776 ], [ 346716.639142885745969, 6968075.632783828303218 ], [ 346721.71579451096477, 6968080.964957779273391 ], [ 346727.047968461934943, 6968086.041609404608607 ], [ 346732.622819064417854, 6968090.850508606061339 ], [ 346738.426916015101597, 6968095.380070323124528 ], [ 346744.446276736038271, 6968099.619382446631789 ], [ 346750.666400059999432, 6968103.558232101611793 ], [ 346757.072301165084355, 6968107.187130253762007 ], [ 346763.648547674412839, 6968110.497334569692612 ], [ 346770.379296834231354, 6968113.480870477855206 ], [ 346777.248333680152427, 6968116.130550378933549 ], [ 346784.239110100781545, 6968118.439990960992873 ], [ 346791.334784703503828, 6968120.403628580272198 ], [ 346798.518263386562467, 6968122.016732661984861 ], [ 346805.772240520687774, 6968123.275417095981538 ], [ 346813.079240639519412, 6968124.176649602130055 ], [ 346820.421660539868753, 6968124.718259031884372 ], [ 346827.781811688968446, 6968124.89894060138613 ], [ 346835.141962838068139, 6968124.718259031884372 ], [ 346842.48438273841748, 6968124.176649602130055 ], [ 346849.791382857249118, 6968123.275417095981538 ], [ 346857.045359991374426, 6968122.016732661984861 ], [ 346864.228838674433064, 6968120.403628580272198 ], [ 346871.324513277155347, 6968118.439990960992873 ], [ 346878.315289697784465, 6968116.130550378933549 ], [ 346885.184326543705538, 6968113.480870477855206 ], [ 346891.915075703524053, 6968110.497334569692612 ], [ 346898.491322212852538, 6968107.187130253762007 ], [ 346904.89722331793746, 6968103.558232101611793 ], [ 346911.117346641898621, 6968099.619382446631789 ], [ 346917.136707362835295, 6968095.380070323124528 ], [ 346922.940804313519038, 6968090.850508606061339 ], [ 346928.515654916001949, 6968086.041609404608607 ], [ 346933.847828866972122, 6968080.964957779273391 ], [ 346938.924480492190924, 6968075.632783828303218 ], [ 346943.733379693352617, 6968070.05793322622776 ], [ 346948.26294141105609, 6968064.253836275078356 ], [ 346952.502253534330521, 6968058.234475553967059 ], [ 346956.441103189019486, 6968052.014352230355144 ], [ 346960.070001341227908, 6968045.608451125212014 ], [ 346963.380205657507759, 6968039.032204615883529 ], [ 346966.363741565670352, 6968032.301455455832183 ], [ 346969.01342146639945, 6968025.432418609969318 ], [ 346971.32286204880802, 6968018.441642189398408 ], [ 346973.286499668145552, 6968011.345967587083578 ], [ 346974.899603749450762, 6968004.162488903850317 ], [ 346976.15828818368027, 6967996.90851176995784 ], [ 346977.059520689770579, 6967989.601511650718749 ], [ 346977.601130119757727, 6967982.259091750718653 ], [ 346977.781811688968446, 6967974.89894060138613 ] ] ] } },
{ "type": "Feature", "properties": { "id": 4, "Nom": "Goury" }, "geometry": { "type": "Polygon", "coordinates": [ [ [ 343447.986921351985075, 6968539.060876765288413 ], [ 343447.806239782774355, 6968531.700725615955889 ], [ 343447.264630352787208, 6968524.358305715955794 ], [ 343446.363397846696898, 6968517.051305596716702 ], [ 343445.10471341246739, 6968509.797328462824225 ], [ 343443.491609331162181, 6968502.613849779590964 ], [ 343441.527971711824648, 6968495.518175177276134 ], [ 343439.218531129416078, 6968488.527398756705225 ], [ 343436.568851228686981, 6968481.658361910842359 ], [ 343433.585315320524387, 6968474.927612750791013 ], [ 343430.275111004244536, 6968468.351366241462529 ], [ 343426.646212852036115, 6968461.945465136319399 ], [ 343422.707363197347149, 6968455.725341812707484 ], [ 343418.468051074072719, 6968449.705981091596186 ], [ 343413.938489356369246, 6968443.901884140446782 ], [ 343409.129590155207552, 6968438.327033538371325 ], [ 343404.052938529988751, 6968432.994859587401152 ], [ 343398.720764579018578, 6968427.918207962065935 ], [ 343393.145913976535667, 6968423.109308760613203 ], [ 343387.341817025851924, 6968418.579747043550014 ], [ 343381.322456304915249, 6968414.340434920042753 ], [ 343375.102332980954088, 6968410.401585265062749 ], [ 343368.696431875869166, 6968406.772687112912536 ], [ 343362.120185366540682, 6968403.462482796981931 ], [ 343355.389436206722166, 6968400.478946888819337 ], [ 343348.520399360801093, 6968397.829266987740993 ], [ 343341.529622940171976, 6968395.51982640568167 ], [ 343334.433948337449692, 6968393.556188786402345 ], [ 343327.250469654391054, 6968391.943084704689682 ], [ 343319.996492520265747, 6968390.684400270693004 ], [ 343312.689492401434109, 6968389.783167764544487 ], [ 343305.347072501084767, 6968389.24155833479017 ], [ 343297.986921351985075, 6968389.060876765288413 ], [ 343290.626770202885382, 6968389.24155833479017 ], [ 343283.284350302536041, 6968389.783167764544487 ], [ 343275.977350183704402, 6968390.684400270693004 ], [ 343268.723373049579095, 6968391.943084704689682 ], [ 343261.539894366520457, 6968393.556188786402345 ], [ 343254.444219763798174, 6968395.51982640568167 ], [ 343247.453443343169056, 6968397.829266987740993 ], [ 343240.584406497247983, 6968400.478946888819337 ], [ 343233.853657337429468, 6968403.462482796981931 ], [ 343227.277410828100983, 6968406.772687112912536 ], [ 343220.871509723016061, 6968410.401585265062749 ], [ 343214.6513863990549, 6968414.340434920042753 ], [ 343208.632025678118225, 6968418.579747043550014 ], [ 343202.827928727434482, 6968423.109308760613203 ], [ 343197.253078124951571, 6968427.918207962065935 ], [ 343191.920904173981398, 6968432.994859587401152 ], [ 343186.844252548762597, 6968438.327033538371325 ], [ 343182.035353347600903, 6968443.901884140446782 ], [ 343177.505791629897431, 6968449.705981091596186 ], [ 343173.266479506623, 6968455.725341812707484 ], [ 343169.327629851934034, 6968461.945465136319399 ], [ 343165.698731699725613, 6968468.351366241462529 ], [ 343162.388527383445762, 6968474.927612750791013 ], [ 343159.404991475283168, 6968481.658361910842359 ], [ 343156.755311574554071, 6968488.527398756705225 ], [ 343154.445870992145501, 6968495.518175177276134 ], [ 343152.482233372807968, 6968502.613849779590964 ], [ 343150.869129291502759, 6968509.797328462824225 ], [ 343149.610444857273251, 6968517.051305596716702 ], [ 343148.709212351182941, 6968524.358305715955794 ], [ 343148.167602921195794, 6968531.700725615955889 ], [ 343147.986921351985075, 6968539.060876765288413 ], [ 343148.167602921195794, 6968546.421027914620936 ], [ 343148.709212351182941, 6968553.763447814621031 ], [ 343149.610444857273251, 6968561.070447933860123 ], [ 343150.869129291502759, 6968568.3244250677526 ], [ 343152.482233372807968, 6968575.507903750985861 ], [ 343154.445870992145501, 6968582.603578353300691 ], [ 343156.755311574554071, 6968589.594354773871601 ], [ 343159.404991475283168, 6968596.463391619734466 ], [ 343162.388527383445762, 6968603.194140779785812 ], [ 343165.698731699725613, 6968609.770387289114296 ], [ 343169.327629851934034, 6968616.176288394257426 ], [ 343173.266479506623, 6968622.396411717869341 ], [ 343177.505791629897431, 6968628.415772438980639 ], [ 343182.035353347600903, 6968634.219869390130043 ], [ 343186.844252548762597, 6968639.794719992205501 ], [ 343191.920904173981398, 6968645.126893943175673 ], [ 343197.253078124951571, 6968650.20354556851089 ], [ 343202.827928727434482, 6968655.012444769963622 ], [ 343208.632025678118225, 6968659.542006487026811 ], [ 343214.6513863990549, 6968663.781318610534072 ], [ 343220.871509723016061, 6968667.720168265514076 ], [ 343227.277410828100983, 6968671.349066417664289 ], [ 343233.853657337429468, 6968674.659270733594894 ], [ 343240.584406497247983, 6968677.642806641757488 ], [ 343247.453443343169056, 6968680.292486542835832 ], [ 343254.444219763798174, 6968682.601927124895155 ], [ 343261.539894366520457, 6968684.56556474417448 ], [ 343268.723373049579095, 6968686.178668825887144 ], [ 343275.977350183704402, 6968687.437353259883821 ], [ 343283.284350302536041, 6968688.338585766032338 ], [ 343290.626770202885382, 6968688.880195195786655 ], [ 343297.986921351985075, 6968689.060876765288413 ], [ 343305.347072501084767, 6968688.880195195786655 ], [ 343312.689492401434109, 6968688.338585766032338 ], [ 343319.996492520265747, 6968687.437353259883821 ], [ 343327.250469654391054, 6968686.178668825887144 ], [ 343334.433948337449692, 6968684.56556474417448 ], [ 343341.529622940171976, 6968682.601927124895155 ], [ 343348.520399360801093, 6968680.292486542835832 ], [ 343355.389436206722166, 6968677.642806641757488 ], [ 343362.120185366540682, 6968674.659270733594894 ], [ 343368.696431875869166, 6968671.349066417664289 ], [ 343375.102332980954088, 6968667.720168265514076 ], [ 343381.322456304915249, 6968663.781318610534072 ], [ 343387.341817025851924, 6968659.542006487026811 ], [ 343393.145913976535667, 6968655.012444769963622 ], [ 343398.720764579018578, 6968650.20354556851089 ], [ 343404.052938529988751, 6968645.126893943175673 ], [ 343409.129590155207552, 6968639.794719992205501 ], [ 343413.938489356369246, 6968634.219869390130043 ], [ 343418.468051074072719, 6968628.415772438980639 ], [ 343422.707363197347149, 6968622.396411717869341 ], [ 343426.646212852036115, 6968616.176288394257426 ], [ 343430.275111004244536, 6968609.770387289114296 ], [ 343433.585315320524387, 6968603.194140779785812 ], [ 343436.568851228686981, 6968596.463391619734466 ], [ 343439.218531129416078, 6968589.594354773871601 ], [ 343441.527971711824648, 6968582.603578353300691 ], [ 343443.491609331162181, 6968575.507903750985861 ], [ 343445.10471341246739, 6968568.3244250677526 ], [ 343446.363397846696898, 6968561.070447933860123 ], [ 343447.264630352787208, 6968553.763447814621031 ], [ 343447.806239782774355, 6968546.421027914620936 ], [ 343447.986921351985075, 6968539.060876765288413 ] ] ] } },
{ "type": "Feature", "properties": { "id": 1, "Nom": "Cape du Rozel" }, "geometry": { "type": "Polygon", "coordinates": [ [ [ 348993.528797819919419, 6941365.35135655850172 ], [ 348993.348116250708699, 6941357.991205409169197 ], [ 348992.806506820721552, 6941350.648785509169102 ], [ 348991.905274314631242, 6941343.34178538993001 ], [ 348990.646589880401734, 6941336.087808256037533 ], [ 348989.033485799096525, 6941328.904329572804272 ], [ 348987.069848179758992, 6941321.808654970489442 ], [ 348984.760407597350422, 6941314.817878549918532 ], [ 348982.110727696621325, 6941307.948841704055667 ], [ 348979.127191788458731, 6941301.218092544004321 ], [ 348975.81698747217888, 6941294.641846034675837 ], [ 348972.188089319970459, 6941288.235944929532707 ], [ 348968.249239665281493, 6941282.015821605920792 ], [ 348964.009927542007063, 6941275.996460884809494 ], [ 348959.48036582430359, 6941270.19236393366009 ], [ 348954.671466623141896, 6941264.617513331584632 ], [ 348949.594814997923095, 6941259.28533938061446 ], [ 348944.262641046952922, 6941254.208687755279243 ], [ 348938.687790444470011, 6941249.399788553826511 ], [ 348932.883693493786268, 6941244.870226836763322 ], [ 348926.864332772849593, 6941240.630914713256061 ], [ 348920.644209448888432, 6941236.692065058276057 ], [ 348914.23830834380351, 6941233.063166906125844 ], [ 348907.662061834475026, 6941229.752962590195239 ], [ 348900.93131267465651, 6941226.769426682032645 ], [ 348894.062275828735437, 6941224.119746780954301 ], [ 348887.07149940810632, 6941221.810306198894978 ], [ 348879.975824805384036, 6941219.846668579615653 ], [ 348872.792346122325398, 6941218.233564497902989 ], [ 348865.538368988200091, 6941216.974880063906312 ], [ 348858.231368869368453, 6941216.073647557757795 ], [ 348850.888948969019111, 6941215.532038128003478 ], [ 348843.528797819919419, 6941215.35135655850172 ], [ 348836.168646670819726, 6941215.532038128003478 ], [ 348828.826226770470385, 6941216.073647557757795 ], [ 348821.519226651638746, 6941216.974880063906312 ], [ 348814.265249517513439, 6941218.233564497902989 ], [ 348807.081770834454801, 6941219.846668579615653 ], [ 348799.986096231732517, 6941221.810306198894978 ], [ 348792.9953198111034, 6941224.119746780954301 ], [ 348786.126282965182327, 6941226.769426682032645 ], [ 348779.395533805363812, 6941229.752962590195239 ], [ 348772.819287296035327, 6941233.063166906125844 ], [ 348766.413386190950405, 6941236.692065058276057 ], [ 348760.193262866989244, 6941240.630914713256061 ], [ 348754.173902146052569, 6941244.870226836763322 ], [ 348748.369805195368826, 6941249.399788553826511 ], [ 348742.794954592885915, 6941254.208687755279243 ], [ 348737.462780641915742, 6941259.28533938061446 ], [ 348732.386129016696941, 6941264.617513331584632 ], [ 348727.577229815535247, 6941270.19236393366009 ], [ 348723.047668097831775, 6941275.996460884809494 ], [ 348718.808355974557344, 6941282.015821605920792 ], [ 348714.869506319868378, 6941288.235944929532707 ], [ 348711.240608167659957, 6941294.641846034675837 ], [ 348707.930403851380106, 6941301.218092544004321 ], [ 348704.946867943217512, 6941307.948841704055667 ], [ 348702.297188042488415, 6941314.817878549918532 ], [ 348699.987747460079845, 6941321.808654970489442 ], [ 348698.024109840742312, 6941328.904329572804272 ], [ 348696.411005759437103, 6941336.087808256037533 ], [ 348695.152321325207595, 6941343.34178538993001 ], [ 348694.251088819117285, 6941350.648785509169102 ], [ 348693.709479389130138, 6941357.991205409169197 ], [ 348693.528797819919419, 6941365.35135655850172 ], [ 348693.709479389130138, 6941372.711507707834244 ], [ 348694.251088819117285, 6941380.053927607834339 ], [ 348695.152321325207595, 6941387.360927727073431 ], [ 348696.411005759437103, 6941394.614904860965908 ], [ 348698.024109840742312, 6941401.798383544199169 ], [ 348699.987747460079845, 6941408.894058146513999 ], [ 348702.297188042488415, 6941415.884834567084908 ], [ 348704.946867943217512, 6941422.753871412947774 ], [ 348707.930403851380106, 6941429.48462057299912 ], [ 348711.240608167659957, 6941436.060867082327604 ], [ 348714.869506319868378, 6941442.466768187470734 ], [ 348718.808355974557344, 6941448.686891511082649 ], [ 348723.047668097831775, 6941454.706252232193947 ], [ 348727.577229815535247, 6941460.510349183343351 ], [ 348732.386129016696941, 6941466.085199785418808 ], [ 348737.462780641915742, 6941471.417373736388981 ], [ 348742.794954592885915, 6941476.494025361724198 ], [ 348748.369805195368826, 6941481.30292456317693 ], [ 348754.173902146052569, 6941485.832486280240119 ], [ 348760.193262866989244, 6941490.07179840374738 ], [ 348766.413386190950405, 6941494.010648058727384 ], [ 348772.819287296035327, 6941497.639546210877597 ], [ 348779.395533805363812, 6941500.949750526808202 ], [ 348786.126282965182327, 6941503.933286434970796 ], [ 348792.9953198111034, 6941506.582966336049139 ], [ 348799.986096231732517, 6941508.892406918108463 ], [ 348807.081770834454801, 6941510.856044537387788 ], [ 348814.265249517513439, 6941512.469148619100451 ], [ 348821.519226651638746, 6941513.727833053097129 ], [ 348828.826226770470385, 6941514.629065559245646 ], [ 348836.168646670819726, 6941515.170674988999963 ], [ 348843.528797819919419, 6941515.35135655850172 ], [ 348850.888948969019111, 6941515.170674988999963 ], [ 348858.231368869368453, 6941514.629065559245646 ], [ 348865.538368988200091, 6941513.727833053097129 ], [ 348872.792346122325398, 6941512.469148619100451 ], [ 348879.975824805384036, 6941510.856044537387788 ], [ 348887.07149940810632, 6941508.892406918108463 ], [ 348894.062275828735437, 6941506.582966336049139 ], [ 348900.93131267465651, 6941503.933286434970796 ], [ 348907.662061834475026, 6941500.949750526808202 ], [ 348914.23830834380351, 6941497.639546210877597 ], [ 348920.644209448888432, 6941494.010648058727384 ], [ 348926.864332772849593, 6941490.07179840374738 ], [ 348932.883693493786268, 6941485.832486280240119 ], [ 348938.687790444470011, 6941481.30292456317693 ], [ 348944.262641046952922, 6941476.494025361724198 ], [ 348949.594814997923095, 6941471.417373736388981 ], [ 348954.671466623141896, 6941466.085199785418808 ], [ 348959.48036582430359, 6941460.510349183343351 ], [ 348964.009927542007063, 6941454.706252232193947 ], [ 348968.249239665281493, 6941448.686891511082649 ], [ 348972.188089319970459, 6941442.466768187470734 ], [ 348975.81698747217888, 6941436.060867082327604 ], [ 348979.127191788458731, 6941429.48462057299912 ], [ 348982.110727696621325, 6941422.753871412947774 ], [ 348984.760407597350422, 6941415.884834567084908 ], [ 348987.069848179758992, 6941408.894058146513999 ], [ 348989.033485799096525, 6941401.798383544199169 ], [ 348990.646589880401734, 6941394.614904860965908 ], [ 348991.905274314631242, 6941387.360927727073431 ], [ 348992.806506820721552, 6941380.053927607834339 ], [ 348993.348116250708699, 6941372.711507707834244 ], [ 348993.528797819919419, 6941365.35135655850172 ] ] ] } },
{ "type": "Feature", "properties": { "id": 3, "Nom": "Bain d'écalgrain" }, "geometry": { "type": "Polygon", "coordinates": [ [ [ 344039.462309409340378, 6965718.335996466688812 ], [ 344039.281627840129659, 6965710.975845317356288 ], [ 344038.740018410142511, 6965703.633425417356193 ], [ 344037.838785904052202, 6965696.326425298117101 ], [ 344036.580101469822694, 6965689.072448164224625 ], [ 344034.966997388517484, 6965681.888969480991364 ], [ 344033.003359769179951, 6965674.793294878676534 ], [ 344030.693919186771382, 6965667.802518458105624 ], [ 344028.044239286042284, 6965660.933481612242758 ], [ 344025.06070337787969, 6965654.202732452191412 ], [ 344021.750499061599839, 6965647.626485942862928 ], [ 344018.121600909391418, 6965641.220584837719798 ], [ 344014.182751254702453, 6965635.000461514107883 ], [ 344009.943439131428022, 6965628.981100792996585 ], [ 344005.413877413724549, 6965623.177003841847181 ], [ 344000.604978212562855, 6965617.602153239771724 ], [ 343995.528326587344054, 6965612.269979288801551 ], [ 343990.196152636373881, 6965607.193327663466334 ], [ 343984.62130203389097, 6965602.384428462013602 ], [ 343978.817205083207227, 6965597.854866744950414 ], [ 343972.797844362270553, 6965593.615554621443152 ], [ 343966.577721038309392, 6965589.676704966463149 ], [ 343960.171819933224469, 6965586.047806814312935 ], [ 343953.595573423895985, 6965582.73760249838233 ], [ 343946.86482426407747, 6965579.754066590219736 ], [ 343939.995787418156397, 6965577.104386689141393 ], [ 343933.005010997527279, 6965574.794946107082069 ], [ 343925.909336394804996, 6965572.831308487802744 ], [ 343918.725857711746357, 6965571.218204406090081 ], [ 343911.47188057762105, 6965569.959519972093403 ], [ 343904.164880458789412, 6965569.058287465944886 ], [ 343896.822460558440071, 6965568.516678036190569 ], [ 343889.462309409340378, 6965568.335996466688812 ], [ 343882.102158260240685, 6965568.516678036190569 ], [ 343874.759738359891344, 6965569.058287465944886 ], [ 343867.452738241059706, 6965569.959519972093403 ], [ 343860.198761106934398, 6965571.218204406090081 ], [ 343853.01528242387576, 6965572.831308487802744 ], [ 343845.919607821153477, 6965574.794946107082069 ], [ 343838.928831400524359, 6965577.104386689141393 ], [ 343832.059794554603286, 6965579.754066590219736 ], [ 343825.329045394784771, 6965582.73760249838233 ], [ 343818.752798885456286, 6965586.047806814312935 ], [ 343812.346897780371364, 6965589.676704966463149 ], [ 343806.126774456410203, 6965593.615554621443152 ], [ 343800.107413735473529, 6965597.854866744950414 ], [ 343794.303316784789786, 6965602.384428462013602 ], [ 343788.728466182306875, 6965607.193327663466334 ], [ 343783.396292231336702, 6965612.269979288801551 ], [ 343778.3196406061179, 6965617.602153239771724 ], [ 343773.510741404956207, 6965623.177003841847181 ], [ 343768.981179687252734, 6965628.981100792996585 ], [ 343764.741867563978303, 6965635.000461514107883 ], [ 343760.803017909289338, 6965641.220584837719798 ], [ 343757.174119757080916, 6965647.626485942862928 ], [ 343753.863915440801065, 6965654.202732452191412 ], [ 343750.880379532638472, 6965660.933481612242758 ], [ 343748.230699631909374, 6965667.802518458105624 ], [ 343745.921259049500804, 6965674.793294878676534 ], [ 343743.957621430163272, 6965681.888969480991364 ], [ 343742.344517348858062, 6965689.072448164224625 ], [ 343741.085832914628554, 6965696.326425298117101 ], [ 343740.184600408538245, 6965703.633425417356193 ], [ 343739.642990978551097, 6965710.975845317356288 ], [ 343739.462309409340378, 6965718.335996466688812 ], [ 343739.642990978551097, 6965725.696147616021335 ], [ 343740.184600408538245, 6965733.03856751602143 ], [ 343741.085832914628554, 6965740.345567635260522 ], [ 343742.344517348858062, 6965747.599544769152999 ], [ 343743.957621430163272, 6965754.78302345238626 ], [ 343745.921259049500804, 6965761.87869805470109 ], [ 343748.230699631909374, 6965768.869474475272 ], [ 343750.880379532638472, 6965775.738511321134865 ], [ 343753.863915440801065, 6965782.469260481186211 ], [ 343757.174119757080916, 6965789.045506990514696 ], [ 343760.803017909289338, 6965795.451408095657825 ], [ 343764.741867563978303, 6965801.671531419269741 ], [ 343768.981179687252734, 6965807.690892140381038 ], [ 343773.510741404956207, 6965813.494989091530442 ], [ 343778.3196406061179, 6965819.0698396936059 ], [ 343783.396292231336702, 6965824.402013644576073 ], [ 343788.728466182306875, 6965829.478665269911289 ], [ 343794.303316784789786, 6965834.287564471364021 ], [ 343800.107413735473529, 6965838.81712618842721 ], [ 343806.126774456410203, 6965843.056438311934471 ], [ 343812.346897780371364, 6965846.995287966914475 ], [ 343818.752798885456286, 6965850.624186119064689 ], [ 343825.329045394784771, 6965853.934390434995294 ], [ 343832.059794554603286, 6965856.917926343157887 ], [ 343838.928831400524359, 6965859.567606244236231 ], [ 343845.919607821153477, 6965861.877046826295555 ], [ 343853.01528242387576, 6965863.84068444557488 ], [ 343860.198761106934398, 6965865.453788527287543 ], [ 343867.452738241059706, 6965866.71247296128422 ], [ 343874.759738359891344, 6965867.613705467432737 ], [ 343882.102158260240685, 6965868.155314897187054 ], [ 343889.462309409340378, 6965868.335996466688812 ], [ 343896.822460558440071, 6965868.155314897187054 ], [ 343904.164880458789412, 6965867.613705467432737 ], [ 343911.47188057762105, 6965866.71247296128422 ], [ 343918.725857711746357, 6965865.453788527287543 ], [ 343925.909336394804996, 6965863.84068444557488 ], [ 343933.005010997527279, 6965861.877046826295555 ], [ 343939.995787418156397, 6965859.567606244236231 ], [ 343946.86482426407747, 6965856.917926343157887 ], [ 343953.595573423895985, 6965853.934390434995294 ], [ 343960.171819933224469, 6965850.624186119064689 ], [ 343966.577721038309392, 6965846.995287966914475 ], [ 343972.797844362270553, 6965843.056438311934471 ], [ 343978.817205083207227, 6965838.81712618842721 ], [ 343984.62130203389097, 6965834.287564471364021 ], [ 343990.196152636373881, 6965829.478665269911289 ], [ 343995.528326587344054, 6965824.402013644576073 ], [ 344000.604978212562855, 6965819.0698396936059 ], [ 344005.413877413724549, 6965813.494989091530442 ], [ 344009.943439131428022, 6965807.690892140381038 ], [ 344014.182751254702453, 6965801.671531419269741 ], [ 344018.121600909391418, 6965795.451408095657825 ], [ 344021.750499061599839, 6965789.045506990514696 ], [ 344025.06070337787969, 6965782.469260481186211 ], [ 344028.044239286042284, 6965775.738511321134865 ], [ 344030.693919186771382, 6965768.869474475272 ], [ 344033.003359769179951, 6965761.87869805470109 ], [ 344034.966997388517484, 6965754.78302345238626 ], [ 344036.580101469822694, 6965747.599544769152999 ], [ 344037.838785904052202, 6965740.345567635260522 ], [ 344038.740018410142511, 6965733.03856751602143 ], [ 344039.281627840129659, 6965725.696147616021335 ], [ 344039.462309409340378, 6965718.335996466688812 ] ] ] } },
{ "type": "Feature", "properties": { "id": 4, "Nom": "Sainte Vaast-la-hougue" }, "geometry": { "type": "Polygon", "coordinates": [ [ [ 391175.907501813140698, 6950441.134799681603909 ], [ 391175.726820243929978, 6950433.774648532271385 ], [ 391175.185210813942831, 6950426.43222863227129 ], [ 391174.283978307852522, 6950419.125228513032198 ], [ 391173.025293873623013, 6950411.871251379139721 ], [ 391171.412189792317804, 6950404.68777269590646 ], [ 391169.448552172980271, 6950397.59209809359163 ], [ 391167.139111590571702, 6950390.60132167302072 ], [ 391164.489431689842604, 6950383.732284827157855 ], [ 391161.50589578168001, 6950377.001535667106509 ], [ 391158.195691465400159, 6950370.425289157778025 ], [ 391154.566793313191738, 6950364.019388052634895 ], [ 391150.627943658502772, 6950357.79926472902298 ], [ 391146.388631535228342, 6950351.779904007911682 ], [ 391141.859069817524869, 6950345.975807056762278 ], [ 391137.050170616363175, 6950340.400956454686821 ], [ 391131.973518991144374, 6950335.068782503716648 ], [ 391126.641345040174201, 6950329.992130878381431 ], [ 391121.06649443769129, 6950325.183231676928699 ], [ 391115.262397487007547, 6950320.65366995986551 ], [ 391109.243036766070873, 6950316.414357836358249 ], [ 391103.022913442109711, 6950312.475508181378245 ], [ 391096.617012337024789, 6950308.846610029228032 ], [ 391090.040765827696305, 6950305.536405713297427 ], [ 391083.31001666787779, 6950302.552869805134833 ], [ 391076.440979821956716, 6950299.903189904056489 ], [ 391069.450203401327599, 6950297.593749321997166 ], [ 391062.354528798605315, 6950295.630111702717841 ], [ 391055.171050115546677, 6950294.017007621005177 ], [ 391047.91707298142137, 6950292.7583231870085 ], [ 391040.610072862589732, 6950291.857090680859983 ], [ 391033.26765296224039, 6950291.315481251105666 ], [ 391025.907501813140698, 6950291.134799681603909 ], [ 391018.547350664041005, 6950291.315481251105666 ], [ 391011.204930763691664, 6950291.857090680859983 ], [ 391003.897930644860025, 6950292.7583231870085 ], [ 390996.643953510734718, 6950294.017007621005177 ], [ 390989.46047482767608, 6950295.630111702717841 ], [ 390982.364800224953797, 6950297.593749321997166 ], [ 390975.374023804324679, 6950299.903189904056489 ], [ 390968.504986958403606, 6950302.552869805134833 ], [ 390961.774237798585091, 6950305.536405713297427 ], [ 390955.197991289256606, 6950308.846610029228032 ], [ 390948.792090184171684, 6950312.475508181378245 ], [ 390942.571966860210523, 6950316.414357836358249 ], [ 390936.552606139273848, 6950320.65366995986551 ], [ 390930.748509188590106, 6950325.183231676928699 ], [ 390925.173658586107194, 6950329.992130878381431 ], [ 390919.841484635137022, 6950335.068782503716648 ], [ 390914.76483300991822, 6950340.400956454686821 ], [ 390909.955933808756527, 6950345.975807056762278 ], [ 390905.426372091053054, 6950351.779904007911682 ], [ 390901.187059967778623, 6950357.79926472902298 ], [ 390897.248210313089658, 6950364.019388052634895 ], [ 390893.619312160881236, 6950370.425289157778025 ], [ 390890.309107844601385, 6950377.001535667106509 ], [ 390887.325571936438791, 6950383.732284827157855 ], [ 390884.675892035709694, 6950390.60132167302072 ], [ 390882.366451453301124, 6950397.59209809359163 ], [ 390880.402813833963592, 6950404.68777269590646 ], [ 390878.789709752658382, 6950411.871251379139721 ], [ 390877.531025318428874, 6950419.125228513032198 ], [ 390876.629792812338565, 6950426.43222863227129 ], [ 390876.088183382351417, 6950433.774648532271385 ], [ 390875.907501813140698, 6950441.134799681603909 ], [ 390876.088183382351417, 6950448.494950830936432 ], [ 390876.629792812338565, 6950455.837370730936527 ], [ 390877.531025318428874, 6950463.144370850175619 ], [ 390878.789709752658382, 6950470.398347984068096 ], [ 390880.402813833963592, 6950477.581826667301357 ], [ 390882.366451453301124, 6950484.677501269616187 ], [ 390884.675892035709694, 6950491.668277690187097 ], [ 390887.325571936438791, 6950498.537314536049962 ], [ 390890.309107844601385, 6950505.268063696101308 ], [ 390893.619312160881236, 6950511.844310205429792 ], [ 390897.248210313089658, 6950518.250211310572922 ], [ 390901.187059967778623, 6950524.470334634184837 ], [ 390905.426372091053054, 6950530.489695355296135 ], [ 390909.955933808756527, 6950536.293792306445539 ], [ 390914.76483300991822, 6950541.868642908520997 ], [ 390919.841484635137022, 6950547.200816859491169 ], [ 390925.173658586107194, 6950552.277468484826386 ], [ 390930.748509188590106, 6950557.086367686279118 ], [ 390936.552606139273848, 6950561.615929403342307 ], [ 390942.571966860210523, 6950565.855241526849568 ], [ 390948.792090184171684, 6950569.794091181829572 ], [ 390955.197991289256606, 6950573.422989333979785 ], [ 390961.774237798585091, 6950576.73319364991039 ], [ 390968.504986958403606, 6950579.716729558072984 ], [ 390975.374023804324679, 6950582.366409459151328 ], [ 390982.364800224953797, 6950584.675850041210651 ], [ 390989.46047482767608, 6950586.639487660489976 ], [ 390996.643953510734718, 6950588.25259174220264 ], [ 391003.897930644860025, 6950589.511276176199317 ], [ 391011.204930763691664, 6950590.412508682347834 ], [ 391018.547350664041005, 6950590.954118112102151 ], [ 391025.907501813140698, 6950591.134799681603909 ], [ 391033.26765296224039, 6950590.954118112102151 ], [ 391040.610072862589732, 6950590.412508682347834 ], [ 391047.91707298142137, 6950589.511276176199317 ], [ 391055.171050115546677, 6950588.25259174220264 ], [ 391062.354528798605315, 6950586.639487660489976 ], [ 391069.450203401327599, 6950584.675850041210651 ], [ 391076.440979821956716, 6950582.366409459151328 ], [ 391083.31001666787779, 6950579.716729558072984 ], [ 391090.040765827696305, 6950576.73319364991039 ], [ 391096.617012337024789, 6950573.422989333979785 ], [ 391103.022913442109711, 6950569.794091181829572 ], [ 391109.243036766070873, 6950565.855241526849568 ], [ 391115.262397487007547, 6950561.615929403342307 ], [ 391121.06649443769129, 6950557.086367686279118 ], [ 391126.641345040174201, 6950552.277468484826386 ], [ 391131.973518991144374, 6950547.200816859491169 ], [ 391137.050170616363175, 6950541.868642908520997 ], [ 391141.859069817524869, 6950536.293792306445539 ], [ 391146.388631535228342, 6950530.489695355296135 ], [ 391150.627943658502772, 6950524.470334634184837 ], [ 391154.566793313191738, 6950518.250211310572922 ], [ 391158.195691465400159, 6950511.844310205429792 ], [ 391161.50589578168001, 6950505.268063696101308 ], [ 391164.489431689842604, 6950498.537314536049962 ], [ 391167.139111590571702, 6950491.668277690187097 ], [ 391169.448552172980271, 6950484.677501269616187 ], [ 391171.412189792317804, 6950477.581826667301357 ], [ 391173.025293873623013, 6950470.398347984068096 ], [ 391174.283978307852522, 6950463.144370850175619 ], [ 391175.185210813942831, 6950455.837370730936527 ], [ 391175.726820243929978, 6950448.494950830936432 ], [ 391175.907501813140698, 6950441.134799681603909 ] ] ] } },
{ "type": "Feature", "properties": { "id": 3, "Nom": "Le phare de gatteville" }, "geometry": { "type": "Polygon", "coordinates": [ [ [ 391980.566746017197147, 6963430.895698245614767 ], [ 391980.386064447986428, 6963423.535547096282244 ], [ 391979.84445501799928, 6963416.193127196282148 ], [ 391978.943222511908971, 6963408.886127077043056 ], [ 391977.684538077679463, 6963401.63214994315058 ], [ 391976.071433996374253, 6963394.448671259917319 ], [ 391974.107796377036721, 6963387.352996657602489 ], [ 391971.798355794628151, 6963380.362220237031579 ], [ 391969.148675893899053, 6963373.493183391168714 ], [ 391966.165139985736459, 6963366.762434231117368 ], [ 391962.854935669456609, 6963360.186187721788883 ], [ 391959.226037517248187, 6963353.780286616645753 ], [ 391955.287187862559222, 6963347.560163293033838 ], [ 391951.047875739284791, 6963341.540802571922541 ], [ 391946.518314021581318, 6963335.736705620773137 ], [ 391941.709414820419624, 6963330.161855018697679 ], [ 391936.632763195200823, 6963324.829681067727506 ], [ 391931.30058924423065, 6963319.75302944239229 ], [ 391925.725738641747739, 6963314.944130240939558 ], [ 391919.921641691063996, 6963310.414568523876369 ], [ 391913.902280970127322, 6963306.175256400369108 ], [ 391907.682157646166161, 6963302.236406745389104 ], [ 391901.276256541081239, 6963298.60750859323889 ], [ 391894.700010031752754, 6963295.297304277308285 ], [ 391887.969260871934239, 6963292.313768369145691 ], [ 391881.100224026013166, 6963289.664088468067348 ], [ 391874.109447605384048, 6963287.354647886008024 ], [ 391867.013773002661765, 6963285.391010266728699 ], [ 391859.830294319603126, 6963283.777906185016036 ], [ 391852.576317185477819, 6963282.519221751019359 ], [ 391845.269317066646181, 6963281.617989244870842 ], [ 391837.92689716629684, 6963281.076379815116525 ], [ 391830.566746017197147, 6963280.895698245614767 ], [ 391823.206594868097454, 6963281.076379815116525 ], [ 391815.864174967748113, 6963281.617989244870842 ], [ 391808.557174848916475, 6963282.519221751019359 ], [ 391801.303197714791168, 6963283.777906185016036 ], [ 391794.119719031732529, 6963285.391010266728699 ], [ 391787.024044429010246, 6963287.354647886008024 ], [ 391780.033268008381128, 6963289.664088468067348 ], [ 391773.164231162460055, 6963292.313768369145691 ], [ 391766.43348200264154, 6963295.297304277308285 ], [ 391759.857235493313055, 6963298.60750859323889 ], [ 391753.451334388228133, 6963302.236406745389104 ], [ 391747.231211064266972, 6963306.175256400369108 ], [ 391741.211850343330298, 6963310.414568523876369 ], [ 391735.407753392646555, 6963314.944130240939558 ], [ 391729.832902790163644, 6963319.75302944239229 ], [ 391724.500728839193471, 6963324.829681067727506 ], [ 391719.42407721397467, 6963330.161855018697679 ], [ 391714.615178012812976, 6963335.736705620773137 ], [ 391710.085616295109503, 6963341.540802571922541 ], [ 391705.846304171835072, 6963347.560163293033838 ], [ 391701.907454517146107, 6963353.780286616645753 ], [ 391698.278556364937685, 6963360.186187721788883 ], [ 391694.968352048657835, 6963366.762434231117368 ], [ 391691.984816140495241, 6963373.493183391168714 ], [ 391689.335136239766143, 6963380.362220237031579 ], [ 391687.025695657357574, 6963387.352996657602489 ], [ 391685.062058038020041, 6963394.448671259917319 ], [ 391683.448953956714831, 6963401.63214994315058 ], [ 391682.190269522485323, 6963408.886127077043056 ], [ 391681.289037016395014, 6963416.193127196282148 ], [ 391680.747427586407866, 6963423.535547096282244 ], [ 391680.566746017197147, 6963430.895698245614767 ], [ 391680.747427586407866, 6963438.25584939494729 ], [ 391681.289037016395014, 6963445.598269294947386 ], [ 391682.190269522485323, 6963452.905269414186478 ], [ 391683.448953956714831, 6963460.159246548078954 ], [ 391685.062058038020041, 6963467.342725231312215 ], [ 391687.025695657357574, 6963474.438399833627045 ], [ 391689.335136239766143, 6963481.429176254197955 ], [ 391691.984816140495241, 6963488.298213100060821 ], [ 391694.968352048657835, 6963495.028962260112166 ], [ 391698.278556364937685, 6963501.605208769440651 ], [ 391701.907454517146107, 6963508.011109874583781 ], [ 391705.846304171835072, 6963514.231233198195696 ], [ 391710.085616295109503, 6963520.250593919306993 ], [ 391714.615178012812976, 6963526.054690870456398 ], [ 391719.42407721397467, 6963531.629541472531855 ], [ 391724.500728839193471, 6963536.961715423502028 ], [ 391729.832902790163644, 6963542.038367048837245 ], [ 391735.407753392646555, 6963546.847266250289977 ], [ 391741.211850343330298, 6963551.376827967353165 ], [ 391747.231211064266972, 6963555.616140090860426 ], [ 391753.451334388228133, 6963559.55498974584043 ], [ 391759.857235493313055, 6963563.183887897990644 ], [ 391766.43348200264154, 6963566.494092213921249 ], [ 391773.164231162460055, 6963569.477628122083843 ], [ 391780.033268008381128, 6963572.127308023162186 ], [ 391787.024044429010246, 6963574.43674860522151 ], [ 391794.119719031732529, 6963576.400386224500835 ], [ 391801.303197714791168, 6963578.013490306213498 ], [ 391808.557174848916475, 6963579.272174740210176 ], [ 391815.864174967748113, 6963580.173407246358693 ], [ 391823.206594868097454, 6963580.715016676113009 ], [ 391830.566746017197147, 6963580.895698245614767 ], [ 391837.92689716629684, 6963580.715016676113009 ], [ 391845.269317066646181, 6963580.173407246358693 ], [ 391852.576317185477819, 6963579.272174740210176 ], [ 391859.830294319603126, 6963578.013490306213498 ], [ 391867.013773002661765, 6963576.400386224500835 ], [ 391874.109447605384048, 6963574.43674860522151 ], [ 391881.100224026013166, 6963572.127308023162186 ], [ 391887.969260871934239, 6963569.477628122083843 ], [ 391894.700010031752754, 6963566.494092213921249 ], [ 391901.276256541081239, 6963563.183887897990644 ], [ 391907.682157646166161, 6963559.55498974584043 ], [ 391913.902280970127322, 6963555.616140090860426 ], [ 391919.921641691063996, 6963551.376827967353165 ], [ 391925.725738641747739, 6963546.847266250289977 ], [ 391931.30058924423065, 6963542.038367048837245 ], [ 391936.632763195200823, 6963536.961715423502028 ], [ 391941.709414820419624, 6963531.629541472531855 ], [ 391946.518314021581318, 6963526.054690870456398 ], [ 391951.047875739284791, 6963520.250593919306993 ], [ 391955.287187862559222, 6963514.231233198195696 ], [ 391959.226037517248187, 6963508.011109874583781 ], [ 391962.854935669456609, 6963501.605208769440651 ], [ 391966.165139985736459, 6963495.028962260112166 ], [ 391969.148675893899053, 6963488.298213100060821 ], [ 391971.798355794628151, 6963481.429176254197955 ], [ 391974.107796377036721, 6963474.438399833627045 ], [ 391976.071433996374253, 6963467.342725231312215 ], [ 391977.684538077679463, 6963460.159246548078954 ], [ 391978.943222511908971, 6963452.905269414186478 ], [ 391979.84445501799928, 6963445.598269294947386 ], [ 391980.386064447986428, 6963438.25584939494729 ], [ 391980.566746017197147, 6963430.895698245614767 ] ] ] } },
{ "type": "Feature", "properties": { "id": 1, "Nom": "L'anse de brick" }, "geometry": { "type": "Polygon", "coordinates": [ [ [ 376373.734817032585852, 6961697.460582164116204 ], [ 376373.554135463375133, 6961690.10043101478368 ], [ 376373.012526033387985, 6961682.758011114783585 ], [ 376372.111293527297676, 6961675.451010995544493 ], [ 376370.852609093068168, 6961668.197033861652017 ], [ 376369.239505011762958, 6961661.013555178418756 ], [ 376367.275867392425425, 6961653.917880576103926 ], [ 376364.966426810016856, 6961646.927104155533016 ], [ 376362.316746909287758, 6961640.05806730967015 ], [ 376359.333211001125164, 6961633.327318149618804 ], [ 376356.023006684845313, 6961626.75107164029032 ], [ 376352.394108532636892, 6961620.34517053514719 ], [ 376348.455258877947927, 6961614.125047211535275 ], [ 376344.215946754673496, 6961608.105686490423977 ], [ 376339.686385036970023, 6961602.301589539274573 ], [ 376334.877485835808329, 6961596.726738937199116 ], [ 376329.800834210589528, 6961591.394564986228943 ], [ 376324.468660259619355, 6961586.317913360893726 ], [ 376318.893809657136444, 6961581.509014159440994 ], [ 376313.089712706452701, 6961576.979452442377806 ], [ 376307.070351985516027, 6961572.740140318870544 ], [ 376300.850228661554866, 6961568.801290663890541 ], [ 376294.444327556469943, 6961565.172392511740327 ], [ 376287.868081047141459, 6961561.862188195809722 ], [ 376281.137331887322944, 6961558.878652287647128 ], [ 376274.268295041401871, 6961556.228972386568785 ], [ 376267.277518620772753, 6961553.919531804509461 ], [ 376260.181844018050469, 6961551.955894185230136 ], [ 376252.998365334991831, 6961550.342790103517473 ], [ 376245.744388200866524, 6961549.084105669520795 ], [ 376238.437388082034886, 6961548.182873163372278 ], [ 376231.094968181685545, 6961547.641263733617961 ], [ 376223.734817032585852, 6961547.460582164116204 ], [ 376216.374665883486159, 6961547.641263733617961 ], [ 376209.032245983136818, 6961548.182873163372278 ], [ 376201.72524586430518, 6961549.084105669520795 ], [ 376194.471268730179872, 6961550.342790103517473 ], [ 376187.287790047121234, 6961551.955894185230136 ], [ 376180.192115444398951, 6961553.919531804509461 ], [ 376173.201339023769833, 6961556.228972386568785 ], [ 376166.33230217784876, 6961558.878652287647128 ], [ 376159.601553018030245, 6961561.862188195809722 ], [ 376153.02530650870176, 6961565.172392511740327 ], [ 376146.619405403616838, 6961568.801290663890541 ], [ 376140.399282079655677, 6961572.740140318870544 ], [ 376134.379921358719002, 6961576.979452442377806 ], [ 376128.57582440803526, 6961581.509014159440994 ], [ 376123.000973805552348, 6961586.317913360893726 ], [ 376117.668799854582176, 6961591.394564986228943 ], [ 376112.592148229363374, 6961596.726738937199116 ], [ 376107.783249028201681, 6961602.301589539274573 ], [ 376103.253687310498208, 6961608.105686490423977 ], [ 376099.014375187223777, 6961614.125047211535275 ], [ 376095.075525532534812, 6961620.34517053514719 ], [ 376091.44662738032639, 6961626.75107164029032 ], [ 376088.136423064046539, 6961633.327318149618804 ], [ 376085.152887155883946, 6961640.05806730967015 ], [ 376082.503207255154848, 6961646.927104155533016 ], [ 376080.193766672746278, 6961653.917880576103926 ], [ 376078.230129053408746, 6961661.013555178418756 ], [ 376076.617024972103536, 6961668.197033861652017 ], [ 376075.358340537874028, 6961675.451010995544493 ], [ 376074.457108031783719, 6961682.758011114783585 ], [ 376073.915498601796571, 6961690.10043101478368 ], [ 376073.734817032585852, 6961697.460582164116204 ], [ 376073.915498601796571, 6961704.820733313448727 ], [ 376074.457108031783719, 6961712.163153213448822 ], [ 376075.358340537874028, 6961719.470153332687914 ], [ 376076.617024972103536, 6961726.724130466580391 ], [ 376078.230129053408746, 6961733.907609149813652 ], [ 376080.193766672746278, 6961741.003283752128482 ], [ 376082.503207255154848, 6961747.994060172699392 ], [ 376085.152887155883946, 6961754.863097018562257 ], [ 376088.136423064046539, 6961761.593846178613603 ], [ 376091.44662738032639, 6961768.170092687942088 ], [ 376095.075525532534812, 6961774.575993793085217 ], [ 376099.014375187223777, 6961780.796117116697133 ], [ 376103.253687310498208, 6961786.81547783780843 ], [ 376107.783249028201681, 6961792.619574788957834 ], [ 376112.592148229363374, 6961798.194425391033292 ], [ 376117.668799854582176, 6961803.526599342003465 ], [ 376123.000973805552348, 6961808.603250967338681 ], [ 376128.57582440803526, 6961813.412150168791413 ], [ 376134.379921358719002, 6961817.941711885854602 ], [ 376140.399282079655677, 6961822.181024009361863 ], [ 376146.619405403616838, 6961826.119873664341867 ], [ 376153.02530650870176, 6961829.748771816492081 ], [ 376159.601553018030245, 6961833.058976132422686 ], [ 376166.33230217784876, 6961836.042512040585279 ], [ 376173.201339023769833, 6961838.692191941663623 ], [ 376180.192115444398951, 6961841.001632523722947 ], [ 376187.287790047121234, 6961842.965270143002272 ], [ 376194.471268730179872, 6961844.578374224714935 ], [ 376201.72524586430518, 6961845.837058658711612 ], [ 376209.032245983136818, 6961846.738291164860129 ], [ 376216.374665883486159, 6961847.279900594614446 ], [ 376223.734817032585852, 6961847.460582164116204 ], [ 376231.094968181685545, 6961847.279900594614446 ], [ 376238.437388082034886, 6961846.738291164860129 ], [ 376245.744388200866524, 6961845.837058658711612 ], [ 376252.998365334991831, 6961844.578374224714935 ], [ 376260.181844018050469, 6961842.965270143002272 ], [ 376267.277518620772753, 6961841.001632523722947 ], [ 376274.268295041401871, 6961838.692191941663623 ], [ 376281.137331887322944, 6961836.042512040585279 ], [ 376287.868081047141459, 6961833.058976132422686 ], [ 376294.444327556469943, 6961829.748771816492081 ], [ 376300.850228661554866, 6961826.119873664341867 ], [ 376307.070351985516027, 6961822.181024009361863 ], [ 376313.089712706452701, 6961817.941711885854602 ], [ 376318.893809657136444, 6961813.412150168791413 ], [ 376324.468660259619355, 6961808.603250967338681 ], [ 376329.800834210589528, 6961803.526599342003465 ], [ 376334.877485835808329, 6961798.194425391033292 ], [ 376339.686385036970023, 6961792.619574788957834 ], [ 376344.215946754673496, 6961786.81547783780843 ], [ 376348.455258877947927, 6961780.796117116697133 ], [ 376352.394108532636892, 6961774.575993793085217 ], [ 376356.023006684845313, 6961768.170092687942088 ], [ 376359.333211001125164, 6961761.593846178613603 ], [ 376362.316746909287758, 6961754.863097018562257 ], [ 376364.966426810016856, 6961747.994060172699392 ], [ 376367.275867392425425, 6961741.003283752128482 ], [ 376369.239505011762958, 6961733.907609149813652 ], [ 376370.852609093068168, 6961726.724130466580391 ], [ 376372.111293527297676, 6961719.470153332687914 ], [ 376373.012526033387985, 6961712.163153213448822 ], [ 376373.554135463375133, 6961704.820733313448727 ], [ 376373.734817032585852, 6961697.460582164116204 ] ] ] } },
{ "type": "Feature", "properties": { "id": 2, "Nom": "L'anse de la mondrée" }, "geometry": { "type": "Polygon", "coordinates": [ [ [ 378836.426633374416269, 6963744.760088103823364 ], [ 378836.24595180520555, 6963737.39993695449084 ], [ 378835.704342375218403, 6963730.057517054490745 ], [ 378834.803109869128093, 6963722.750516935251653 ], [ 378833.544425434898585, 6963715.496539801359177 ], [ 378831.931321353593376, 6963708.313061118125916 ], [ 378829.967683734255843, 6963701.217386515811086 ], [ 378827.658243151847273, 6963694.226610095240176 ], [ 378825.008563251118176, 6963687.35757324937731 ], [ 378822.025027342955582, 6963680.626824089325964 ], [ 378818.714823026675731, 6963674.05057757999748 ], [ 378815.08592487446731, 6963667.64467647485435 ], [ 378811.147075219778344, 6963661.424553151242435 ], [ 378806.907763096503913, 6963655.405192430131137 ], [ 378802.378201378800441, 6963649.601095478981733 ], [ 378797.569302177638747, 6963644.026244876906276 ], [ 378792.492650552419946, 6963638.694070925936103 ], [ 378787.160476601449773, 6963633.617419300600886 ], [ 378781.585625998966862, 6963628.808520099148154 ], [ 378775.781529048283119, 6963624.278958382084966 ], [ 378769.762168327346444, 6963620.039646258577704 ], [ 378763.542045003385283, 6963616.100796603597701 ], [ 378757.136143898300361, 6963612.471898451447487 ], [ 378750.559897388971876, 6963609.161694135516882 ], [ 378743.829148229153361, 6963606.178158227354288 ], [ 378736.960111383232288, 6963603.528478326275945 ], [ 378729.96933496260317, 6963601.219037744216621 ], [ 378722.873660359880887, 6963599.255400124937296 ], [ 378715.690181676822249, 6963597.642296043224633 ], [ 378708.436204542696942, 6963596.383611609227955 ], [ 378701.129204423865303, 6963595.482379103079438 ], [ 378693.786784523515962, 6963594.940769673325121 ], [ 378686.426633374416269, 6963594.760088103823364 ], [ 378679.066482225316577, 6963594.940769673325121 ], [ 378671.724062324967235, 6963595.482379103079438 ], [ 378664.417062206135597, 6963596.383611609227955 ], [ 378657.16308507201029, 6963597.642296043224633 ], [ 378649.979606388951652, 6963599.255400124937296 ], [ 378642.883931786229368, 6963601.219037744216621 ], [ 378635.893155365600251, 6963603.528478326275945 ], [ 378629.024118519679178, 6963606.178158227354288 ], [ 378622.293369359860662, 6963609.161694135516882 ], [ 378615.717122850532178, 6963612.471898451447487 ], [ 378609.311221745447256, 6963616.100796603597701 ], [ 378603.091098421486095, 6963620.039646258577704 ], [ 378597.07173770054942, 6963624.278958382084966 ], [ 378591.267640749865677, 6963628.808520099148154 ], [ 378585.692790147382766, 6963633.617419300600886 ], [ 378580.360616196412593, 6963638.694070925936103 ], [ 378575.283964571193792, 6963644.026244876906276 ], [ 378570.475065370032098, 6963649.601095478981733 ], [ 378565.945503652328625, 6963655.405192430131137 ], [ 378561.706191529054195, 6963661.424553151242435 ], [ 378557.767341874365229, 6963667.64467647485435 ], [ 378554.138443722156808, 6963674.05057757999748 ], [ 378550.828239405876957, 6963680.626824089325964 ], [ 378547.844703497714363, 6963687.35757324937731 ], [ 378545.195023596985266, 6963694.226610095240176 ], [ 378542.885583014576696, 6963701.217386515811086 ], [ 378540.921945395239163, 6963708.313061118125916 ], [ 378539.308841313933954, 6963715.496539801359177 ], [ 378538.050156879704446, 6963722.750516935251653 ], [ 378537.148924373614136, 6963730.057517054490745 ], [ 378536.607314943626989, 6963737.39993695449084 ], [ 378536.426633374416269, 6963744.760088103823364 ], [ 378536.607314943626989, 6963752.120239253155887 ], [ 378537.148924373614136, 6963759.462659153155982 ], [ 378538.050156879704446, 6963766.769659272395074 ], [ 378539.308841313933954, 6963774.023636406287551 ], [ 378540.921945395239163, 6963781.207115089520812 ], [ 378542.885583014576696, 6963788.302789691835642 ], [ 378545.195023596985266, 6963795.293566112406552 ], [ 378547.844703497714363, 6963802.162602958269417 ], [ 378550.828239405876957, 6963808.893352118320763 ], [ 378554.138443722156808, 6963815.469598627649248 ], [ 378557.767341874365229, 6963821.875499732792377 ], [ 378561.706191529054195, 6963828.095623056404293 ], [ 378565.945503652328625, 6963834.11498377751559 ], [ 378570.475065370032098, 6963839.919080728664994 ], [ 378575.283964571193792, 6963845.493931330740452 ], [ 378580.360616196412593, 6963850.826105281710625 ], [ 378585.692790147382766, 6963855.902756907045841 ], [ 378591.267640749865677, 6963860.711656108498573 ], [ 378597.07173770054942, 6963865.241217825561762 ], [ 378603.091098421486095, 6963869.480529949069023 ], [ 378609.311221745447256, 6963873.419379604049027 ], [ 378615.717122850532178, 6963877.048277756199241 ], [ 378622.293369359860662, 6963880.358482072129846 ], [ 378629.024118519679178, 6963883.342017980292439 ], [ 378635.893155365600251, 6963885.991697881370783 ], [ 378642.883931786229368, 6963888.301138463430107 ], [ 378649.979606388951652, 6963890.264776082709432 ], [ 378657.16308507201029, 6963891.877880164422095 ], [ 378664.417062206135597, 6963893.136564598418772 ], [ 378671.724062324967235, 6963894.037797104567289 ], [ 378679.066482225316577, 6963894.579406534321606 ], [ 378686.426633374416269, 6963894.760088103823364 ], [ 378693.786784523515962, 6963894.579406534321606 ], [ 378701.129204423865303, 6963894.037797104567289 ], [ 378708.436204542696942, 6963893.136564598418772 ], [ 378715.690181676822249, 6963891.877880164422095 ], [ 378722.873660359880887, 6963890.264776082709432 ], [ 378729.96933496260317, 6963888.301138463430107 ], [ 378736.960111383232288, 6963885.991697881370783 ], [ 378743.829148229153361, 6963883.342017980292439 ], [ 378750.559897388971876, 6963880.358482072129846 ], [ 378757.136143898300361, 6963877.048277756199241 ], [ 378763.542045003385283, 6963873.419379604049027 ], [ 378769.762168327346444, 6963869.480529949069023 ], [ 378775.781529048283119, 6963865.241217825561762 ], [ 378781.585625998966862, 6963860.711656108498573 ], [ 378787.160476601449773, 6963855.902756907045841 ], [ 378792.492650552419946, 6963850.826105281710625 ], [ 378797.569302177638747, 6963845.493931330740452 ], [ 378802.378201378800441, 6963839.919080728664994 ], [ 378806.907763096503913, 6963834.11498377751559 ], [ 378811.147075219778344, 6963828.095623056404293 ], [ 378815.08592487446731, 6963821.875499732792377 ], [ 378818.714823026675731, 6963815.469598627649248 ], [ 378822.025027342955582, 6963808.893352118320763 ], [ 378825.008563251118176, 6963802.162602958269417 ], [ 378827.658243151847273, 6963795.293566112406552 ], [ 378829.967683734255843, 6963788.302789691835642 ], [ 378831.931321353593376, 6963781.207115089520812 ], [ 378833.544425434898585, 6963774.023636406287551 ], [ 378834.803109869128093, 6963766.769659272395074 ], [ 378835.704342375218403, 6963759.462659153155982 ], [ 378836.24595180520555, 6963752.120239253155887 ], [ 378836.426633374416269, 6963744.760088103823364 ] ] ] } }
]
}
