{
"type": "FeatureCollection",
"name": "tampons_stats_complete",
"crs": { "type": "name", "properties": { "name": "urn:ogc:def:crs:EPSG::2154" } },
"features": [
{ "type": "Feature", "properties": { "id": 4, "Nom": "Sainte Vaast-la-hougue", "min": 4.96, "max": 5.2800002, "mean": 5.1437259, "median": 5.1500001, "std": 0.074279808, "hs_min": null, "hs_max": null, "hs_mean": null, "hs_median": null, "hs_std": null, "dir_min": null, "dir_max": null, "dir_mean": null, "dir_median": null, "dir_std": null }, "geometry": { "type": "Polygon", "coordinates": [ [ [ 391045.907501813140698, 6950441.134799681603909 ], [ 391045.811196346592624, 6950439.174456874839962 ], [ 391045.523207421181723, 6950437.232993241399527 ], [ 391045.046308527758811, 6950435.329106136225164 ], [ 391044.385092463344336, 6950433.481131033971906 ], [ 391043.545927100116387, 6950431.706864944659173 ], [ 391042.536894059216138, 6950430.023395021446049 ], [ 391041.367710880411323, 6950428.446933998726308 ], [ 391040.04963743686676, 6950426.992664057761431 ], [ 391038.595367496425752, 6950425.674590614624321 ], [ 391037.018906473531388, 6950424.505407435819507 ], [ 391035.335436549677979, 6950423.496374394744635 ], [ 391033.561170460423455, 6950422.657209031283855 ], [ 391031.713195358228404, 6950421.995992966927588 ], [ 391029.809308253461495, 6950421.519094073213637 ], [ 391027.867844619730022, 6950421.231105147860944 ], [ 391025.907501813140698, 6950421.134799681603909 ], [ 391023.947159006551374, 6950421.231105147860944 ], [ 391022.005695372819901, 6950421.519094073213637 ], [ 391020.101808268052991, 6950421.995992966927588 ], [ 391018.253833165857941, 6950422.657209031283855 ], [ 391016.479567076603416, 6950423.496374394744635 ], [ 391014.796097152750008, 6950424.505407435819507 ], [ 391013.219636129855644, 6950425.674590614624321 ], [ 391011.765366189414635, 6950426.992664057761431 ], [ 391010.447292745870072, 6950428.446933998726308 ], [ 391009.278109567065258, 6950430.023395021446049 ], [ 391008.269076526165009, 6950431.706864944659173 ], [ 391007.42991116293706, 6950433.481131033971906 ], [ 391006.768695098522585, 6950435.329106136225164 ], [ 391006.291796205099672, 6950437.232993241399527 ], [ 391006.003807279688772, 6950439.174456874839962 ], [ 391005.907501813140698, 6950441.134799681603909 ], [ 391006.003807279688772, 6950443.095142488367856 ], [ 391006.291796205099672, 6950445.03660612180829 ], [ 391006.768695098522585, 6950446.940493226982653 ], [ 391007.42991116293706, 6950448.788468329235911 ], [ 391008.269076526165009, 6950450.562734418548644 ], [ 391009.278109567065258, 6950452.246204341761768 ], [ 391010.447292745870072, 6950453.822665364481509 ], [ 391011.765366189414635, 6950455.276935305446386 ], [ 391013.219636129855644, 6950456.595008748583496 ], [ 391014.796097152750008, 6950457.76419192738831 ], [ 391016.479567076603416, 6950458.773224968463182 ], [ 391018.253833165857941, 6950459.612390331923962 ], [ 391020.101808268052991, 6950460.273606396280229 ], [ 391022.005695372819901, 6950460.75050528999418 ], [ 391023.947159006551374, 6950461.038494215346873 ], [ 391025.907501813140698, 6950461.134799681603909 ], [ 391027.867844619730022, 6950461.038494215346873 ], [ 391029.809308253461495, 6950460.75050528999418 ], [ 391031.713195358228404, 6950460.273606396280229 ], [ 391033.561170460423455, 6950459.612390331923962 ], [ 391035.335436549677979, 6950458.773224968463182 ], [ 391037.018906473531388, 6950457.76419192738831 ], [ 391038.595367496425752, 6950456.595008748583496 ], [ 391040.04963743686676, 6950455.276935305446386 ], [ 391041.367710880411323, 6950453.822665364481509 ], [ 391042.536894059216138, 6950452.246204341761768 ], [ 391043.545927100116387, 6950450.562734418548644 ], [ 391044.385092463344336, 6950448.788468329235911 ], [ 391045.046308527758811, 6950446.940493226982653 ], [ 391045.523207421181723, 6950445.03660612180829 ], [ 391045.811196346592624, 6950443.095142488367856 ], [ 391045.907501813140698, 6950441.134799681603909 ] ] ] } },
{ "type": "Feature", "properties": { "id": 3, "Nom": "Le phare de gatteville", "min": 3.47, "max": 5.1500001, "mean": 4.4187999, "median": 4.3900003, "std": 0.40735558, "hs_min": null, "hs_max": null, "hs_mean": null, "hs_median": null, "hs_std": null, "dir_min": null, "dir_max": null, "dir_mean": null, "dir_median": null, "dir_std": null }, "geometry": { "type": "Polygon", "coordinates": [ [ [ 391850.566746017197147, 6963430.895698245614767 ], [ 391850.470440550649073, 6963428.93535543885082 ], [ 391850.182451625238173, 6963426.993891805410385 ], [ 391849.70555273181526, 6963425.090004700236022 ], [ 391849.044336667400785, 6963423.242029597982764 ], [ 391848.205171304172836, 6963421.467763508670032 ], [ 391847.196138263272587, 6963419.784293585456908 ], [ 391846.026955084467772, 6963418.207832562737167 ], [ 391844.708881640923209, 6963416.753562621772289 ], [ 391843.254611700482201, 6963415.43548917863518 ], [ 391841.678150677587837, 6963414.266305999830365 ], [ 391839.994680753734428, 6963413.257272958755493 ], [ 391838.220414664479904, 6963412.418107595294714 ], [ 391836.372439562284853, 6963411.756891530938447 ], [ 391834.468552457517944, 6963411.279992637224495 ], [ 391832.527088823786471, 6963410.992003711871803 ], [ 391830.566746017197147, 6963410.895698245614767 ], [ 391828.606403210607823, 6963410.992003711871803 ], [ 391826.66493957687635, 6963411.279992637224495 ], [ 391824.761052472109441, 6963411.756891530938447 ], [ 391822.91307736991439, 6963412.418107595294714 ], [ 391821.138811280659866, 6963413.257272958755493 ], [ 391819.455341356806457, 6963414.266305999830365 ], [ 391817.878880333912093, 6963415.43548917863518 ], [ 391816.424610393471085, 6963416.753562621772289 ], [ 391815.106536949926522, 6963418.207832562737167 ], [ 391813.937353771121707, 6963419.784293585456908 ], [ 391812.928320730221458, 6963421.467763508670032 ], [ 391812.089155366993509, 6963423.242029597982764 ], [ 391811.427939302579034, 6963425.090004700236022 ], [ 391810.951040409156121, 6963426.993891805410385 ], [ 391810.663051483745221, 6963428.93535543885082 ], [ 391810.566746017197147, 6963430.895698245614767 ], [ 391810.663051483745221, 6963432.856041052378714 ], [ 391810.951040409156121, 6963434.797504685819149 ], [ 391811.427939302579034, 6963436.701391790993512 ], [ 391812.089155366993509, 6963438.54936689324677 ], [ 391812.928320730221458, 6963440.323632982559502 ], [ 391813.937353771121707, 6963442.007102905772626 ], [ 391815.106536949926522, 6963443.583563928492367 ], [ 391816.424610393471085, 6963445.037833869457245 ], [ 391817.878880333912093, 6963446.355907312594354 ], [ 391819.455341356806457, 6963447.525090491399169 ], [ 391821.138811280659866, 6963448.534123532474041 ], [ 391822.91307736991439, 6963449.37328889593482 ], [ 391824.761052472109441, 6963450.034504960291088 ], [ 391826.66493957687635, 6963450.511403854005039 ], [ 391828.606403210607823, 6963450.799392779357731 ], [ 391830.566746017197147, 6963450.895698245614767 ], [ 391832.527088823786471, 6963450.799392779357731 ], [ 391834.468552457517944, 6963450.511403854005039 ], [ 391836.372439562284853, 6963450.034504960291088 ], [ 391838.220414664479904, 6963449.37328889593482 ], [ 391839.994680753734428, 6963448.534123532474041 ], [ 391841.678150677587837, 6963447.525090491399169 ], [ 391843.254611700482201, 6963446.355907312594354 ], [ 391844.708881640923209, 6963445.037833869457245 ], [ 391846.026955084467772, 6963443.583563928492367 ], [ 391847.196138263272587, 6963442.007102905772626 ], [ 391848.205171304172836, 6963440.323632982559502 ], [ 391849.044336667400785, 6963438.54936689324677 ], [ 391849.70555273181526, 6963436.701391790993512 ], [ 391850.182451625238173, 6963434.797504685819149 ], [ 391850.470440550649073, 6963432.856041052378714 ], [ 391850.566746017197147, 6963430.895698245614767 ] ] ] } },
{ "type": "Feature", "properties": { "id": 1, "Nom": "L'anse de brick", "min": 15.82, "max": 25.540001, "mean": 20.606001, "median": 20.82, "std": 3.0688157, "hs_min": null, "hs_max": null, "hs_mean": null, "hs_median": null, "hs_std": null, "dir_min": null, "dir_max": null, "dir_mean": null, "dir_median": null, "dir_std": null }, "geometry": { "type": "Polygon", "coordinates": [ [ [ 376243.734817032585852, 6961697.460582164116204 ], [ 376243.638511566037778, 6961695.500239357352257 ], [ 376243.350522640626878, 6961693.558775723911822 ], [ 376242.873623747203965, 6961691.654888618737459 ], [ 376242.21240768278949, 6961689.806913516484201 ], [ 376241.373242319561541, 6961688.032647427171469 ], [ 376240.364209278661292, 6961686.349177503958344 ], [ 376239.195026099856477, 6961684.772716481238604 ], [ 376237.876952656311914, 6961683.318446540273726 ], [ 376236.422682715870906, 6961682.000373097136617 ], [ 376234.846221692976542, 6961680.831189918331802 ], [ 376233.162751769123133, 6961679.82215687725693 ], [ 376231.388485679868609, 6961678.982991513796151 ], [ 376229.540510577673558, 6961678.321775449439883 ], [ 376227.636623472906649, 6961677.844876555725932 ], [ 376225.695159839175176, 6961677.55688763037324 ], [ 376223.734817032585852, 6961677.460582164116204 ], [ 376221.774474225996528, 6961677.55688763037324 ], [ 376219.833010592265055, 6961677.844876555725932 ], [ 376217.929123487498146, 6961678.321775449439883 ], [ 376216.081148385303095, 6961678.982991513796151 ], [ 376214.30688229604857, 6961679.82215687725693 ], [ 376212.623412372195162, 6961680.831189918331802 ], [ 376211.046951349300798, 6961682.000373097136617 ], [ 376209.592681408859789, 6961683.318446540273726 ], [ 376208.274607965315226, 6961684.772716481238604 ], [ 376207.105424786510412, 6961686.349177503958344 ], [ 376206.096391745610163, 6961688.032647427171469 ], [ 376205.257226382382214, 6961689.806913516484201 ], [ 376204.596010317967739, 6961691.654888618737459 ], [ 376204.119111424544826, 6961693.558775723911822 ], [ 376203.831122499133926, 6961695.500239357352257 ], [ 376203.734817032585852, 6961697.460582164116204 ], [ 376203.831122499133926, 6961699.420924970880151 ], [ 376204.119111424544826, 6961701.362388604320586 ], [ 376204.596010317967739, 6961703.266275709494948 ], [ 376205.257226382382214, 6961705.114250811748207 ], [ 376206.096391745610163, 6961706.888516901060939 ], [ 376207.105424786510412, 6961708.571986824274063 ], [ 376208.274607965315226, 6961710.148447846993804 ], [ 376209.592681408859789, 6961711.602717787958682 ], [ 376211.046951349300798, 6961712.920791231095791 ], [ 376212.623412372195162, 6961714.089974409900606 ], [ 376214.30688229604857, 6961715.099007450975478 ], [ 376216.081148385303095, 6961715.938172814436257 ], [ 376217.929123487498146, 6961716.599388878792524 ], [ 376219.833010592265055, 6961717.076287772506475 ], [ 376221.774474225996528, 6961717.364276697859168 ], [ 376223.734817032585852, 6961717.460582164116204 ], [ 376225.695159839175176, 6961717.364276697859168 ], [ 376227.636623472906649, 6961717.076287772506475 ], [ 376229.540510577673558, 6961716.599388878792524 ], [ 376231.388485679868609, 6961715.938172814436257 ], [ 376233.162751769123133, 6961715.099007450975478 ], [ 376234.846221692976542, 6961714.089974409900606 ], [ 376236.422682715870906, 6961712.920791231095791 ], [ 376237.876952656311914, 6961711.602717787958682 ], [ 376239.195026099856477, 6961710.148447846993804 ], [ 376240.364209278661292, 6961708.571986824274063 ], [ 376241.373242319561541, 6961706.888516901060939 ], [ 376242.21240768278949, 6961705.114250811748207 ], [ 376242.873623747203965, 6961703.266275709494948 ], [ 376243.350522640626878, 6961701.362388604320586 ], [ 376243.638511566037778, 6961699.420924970880151 ], [ 376243.734817032585852, 6961697.460582164116204 ] ] ] } },
{ "type": "Feature", "properties": { "id": 2, "Nom": "L'anse de la mondrée", "min": 3.83, "max": 6.96, "mean": 5.1408167, "median": 4.9400001, "std": 0.86767769, "hs_min": null, "hs_max": null, "hs_mean": null, "hs_median": null, "hs_std": null, "dir_min": null, "dir_max": null, "dir_mean": null, "dir_median": null, "dir_std": null }, "geometry": { "type": "Polygon", "coordinates": [ [ [ 378706.426633374416269, 6963744.760088103823364 ], [ 378706.330327907868195, 6963742.799745297059417 ], [ 378706.042338982457295, 6963740.858281663618982 ], [ 378705.565440089034382, 6963738.954394558444619 ], [ 378704.904224024619907, 6963737.106419456191361 ], [ 378704.065058661391959, 6963735.332153366878629 ], [ 378703.05602562049171, 6963733.648683443665504 ], [ 378701.886842441686895, 6963732.072222420945764 ], [ 378700.568768998142332, 6963730.617952479980886 ], [ 378699.114499057701323, 6963729.299879036843777 ], [ 378697.538038034806959, 6963728.130695858038962 ], [ 378695.854568110953551, 6963727.12166281696409 ], [ 378694.080302021699026, 6963726.282497453503311 ], [ 378692.232326919503976, 6963725.621281389147043 ], [ 378690.328439814737067, 6963725.144382495433092 ], [ 378688.386976181005593, 6963724.8563935700804 ], [ 378686.426633374416269, 6963724.760088103823364 ], [ 378684.466290567826945, 6963724.8563935700804 ], [ 378682.524826934095472, 6963725.144382495433092 ], [ 378680.620939829328563, 6963725.621281389147043 ], [ 378678.772964727133512, 6963726.282497453503311 ], [ 378676.998698637878988, 6963727.12166281696409 ], [ 378675.315228714025579, 6963728.130695858038962 ], [ 378673.738767691131216, 6963729.299879036843777 ], [ 378672.284497750690207, 6963730.617952479980886 ], [ 378670.966424307145644, 6963732.072222420945764 ], [ 378669.797241128340829, 6963733.648683443665504 ], [ 378668.78820808744058, 6963735.332153366878629 ], [ 378667.949042724212632, 6963737.106419456191361 ], [ 378667.287826659798156, 6963738.954394558444619 ], [ 378666.810927766375244, 6963740.858281663618982 ], [ 378666.522938840964343, 6963742.799745297059417 ], [ 378666.426633374416269, 6963744.760088103823364 ], [ 378666.522938840964343, 6963746.720430910587311 ], [ 378666.810927766375244, 6963748.661894544027746 ], [ 378667.287826659798156, 6963750.565781649202108 ], [ 378667.949042724212632, 6963752.413756751455367 ], [ 378668.78820808744058, 6963754.188022840768099 ], [ 378669.797241128340829, 6963755.871492763981223 ], [ 378670.966424307145644, 6963757.447953786700964 ], [ 378672.284497750690207, 6963758.902223727665842 ], [ 378673.738767691131216, 6963760.220297170802951 ], [ 378675.315228714025579, 6963761.389480349607766 ], [ 378676.998698637878988, 6963762.398513390682638 ], [ 378678.772964727133512, 6963763.237678754143417 ], [ 378680.620939829328563, 6963763.898894818499684 ], [ 378682.524826934095472, 6963764.375793712213635 ], [ 378684.466290567826945, 6963764.663782637566328 ], [ 378686.426633374416269, 6963764.760088103823364 ], [ 378688.386976181005593, 6963764.663782637566328 ], [ 378690.328439814737067, 6963764.375793712213635 ], [ 378692.232326919503976, 6963763.898894818499684 ], [ 378694.080302021699026, 6963763.237678754143417 ], [ 378695.854568110953551, 6963762.398513390682638 ], [ 378697.538038034806959, 6963761.389480349607766 ], [ 378699.114499057701323, 6963760.220297170802951 ], [ 378700.568768998142332, 6963758.902223727665842 ], [ 378701.886842441686895, 6963757.447953786700964 ], [ 378703.05602562049171, 6963755.871492763981223 ], [ 378704.065058661391959, 6963754.188022840768099 ], [ 378704.904224024619907, 6963752.413756751455367 ], [ 378705.565440089034382, 6963750.565781649202108 ], [ 378706.042338982457295, 6963748.661894544027746 ], [ 378706.330327907868195, 6963746.720430910587311 ], [ 378706.426633374416269, 6963744.760088103823364 ] ] ] } }
]
}
